<?xml version="1.0" encoding="UTF-8"?>
<!-- An anonymised real track: the GPSies author, its links, the metadata date
     and the metadata extensions are gone. The route, its elevations and the
     point times (which GPSies had already carried to 2010-01-01, keeping the
     elapsed 4h14) are as the file had them. -->
<gpx xmlns="http://www.topografix.com/GPX/1/1" creator="bintana-example" version="1.1" xmlns:xsi="http://www.w3.org/2001/XMLSchema-instance" xsi:schemaLocation="http://www.topografix.com/GPX/1/1 http://www.topografix.com/GPX/1/1/gpx.xsd">
  <trk>
    <name>Maratón Buenos Aires 42K</name>
    <type>running</type>
    <trkseg>
      <trkpt lat="-34.5486832" lon="-58.4395784">
        <ele>11.000000</ele>
        <time>2010-01-01T00:00:00Z</time>
      </trkpt>
      <trkpt lat="-34.5490690" lon="-58.4390390">
        <ele>11.000000</ele>
        <time>2010-01-01T00:00:23Z</time>
      </trkpt>
      <trkpt lat="-34.5494390" lon="-58.4386020">
        <ele>12.000000</ele>
        <time>2010-01-01T00:00:44Z</time>
      </trkpt>
      <trkpt lat="-34.5497890" lon="-58.4382670">
        <ele>9.0000000</ele>
        <time>2010-01-01T00:01:02Z</time>
      </trkpt>
      <trkpt lat="-34.5499430" lon="-58.4381520">
        <ele>7.0000000</ele>
        <time>2010-01-01T00:01:09Z</time>
      </trkpt>
      <trkpt lat="-34.5501500" lon="-58.4379520">
        <ele>5.0000000</ele>
        <time>2010-01-01T00:01:19Z</time>
      </trkpt>
      <trkpt lat="-34.5503740" lon="-58.4377760">
        <ele>6.0000000</ele>
        <time>2010-01-01T00:01:30Z</time>
      </trkpt>
      <trkpt lat="-34.5518600" lon="-58.4365050">
        <ele>7.0000000</ele>
        <time>2010-01-01T00:02:43Z</time>
      </trkpt>
      <trkpt lat="-34.5522850" lon="-58.4361300">
        <ele>7.0000000</ele>
        <time>2010-01-01T00:03:04Z</time>
      </trkpt>
      <trkpt lat="-34.5528720" lon="-58.4356000">
        <ele>10.000000</ele>
        <time>2010-01-01T00:03:33Z</time>
      </trkpt>
      <trkpt lat="-34.5529560" lon="-58.4355040">
        <ele>9.0000000</ele>
        <time>2010-01-01T00:03:38Z</time>
      </trkpt>
      <trkpt lat="-34.5533000" lon="-58.4350120">
        <ele>6.0000000</ele>
        <time>2010-01-01T00:03:59Z</time>
      </trkpt>
      <trkpt lat="-34.5535480" lon="-58.4346190">
        <ele>9.0000000</ele>
        <time>2010-01-01T00:04:15Z</time>
      </trkpt>
      <trkpt lat="-34.5538210" lon="-58.4342240">
        <ele>9.0000000</ele>
        <time>2010-01-01T00:04:32Z</time>
      </trkpt>
      <trkpt lat="-34.5541630" lon="-58.4337980">
        <ele>11.000000</ele>
        <time>2010-01-01T00:04:52Z</time>
      </trkpt>
      <trkpt lat="-34.5543200" lon="-58.4335740">
        <ele>10.000000</ele>
        <time>2010-01-01T00:05:02Z</time>
      </trkpt>
      <trkpt lat="-34.5545150" lon="-58.4333580">
        <ele>10.000000</ele>
        <time>2010-01-01T00:05:12Z</time>
      </trkpt>
      <trkpt lat="-34.5548320" lon="-58.4329660">
        <ele>8.0000000</ele>
        <time>2010-01-01T00:05:30Z</time>
      </trkpt>
      <trkpt lat="-34.5552560" lon="-58.4324220">
        <ele>6.0000000</ele>
        <time>2010-01-01T00:05:55Z</time>
      </trkpt>
      <trkpt lat="-34.5565700" lon="-58.4307770">
        <ele>11.000000</ele>
        <time>2010-01-01T00:07:11Z</time>
      </trkpt>
      <trkpt lat="-34.5568880" lon="-58.4303420">
        <ele>14.000000</ele>
        <time>2010-01-01T00:07:30Z</time>
      </trkpt>
      <trkpt lat="-34.5574610" lon="-58.4296080">
        <ele>12.000000</ele>
        <time>2010-01-01T00:08:03Z</time>
      </trkpt>
      <trkpt lat="-34.5578200" lon="-58.4291880">
        <ele>7.0000000</ele>
        <time>2010-01-01T00:08:23Z</time>
      </trkpt>
      <trkpt lat="-34.5582890" lon="-58.4285950">
        <ele>11.000000</ele>
        <time>2010-01-01T00:08:50Z</time>
      </trkpt>
      <trkpt lat="-34.5588140" lon="-58.4279230">
        <ele>11.000000</ele>
        <time>2010-01-01T00:09:21Z</time>
      </trkpt>
      <trkpt lat="-34.5596020" lon="-58.4269270">
        <ele>13.000000</ele>
        <time>2010-01-01T00:10:06Z</time>
      </trkpt>
      <trkpt lat="-34.5610530" lon="-58.4251240">
        <ele>10.000000</ele>
        <time>2010-01-01T00:11:29Z</time>
      </trkpt>
      <trkpt lat="-34.5614850" lon="-58.4245740">
        <ele>12.000000</ele>
        <time>2010-01-01T00:11:54Z</time>
      </trkpt>
      <trkpt lat="-34.5619290" lon="-58.4240170">
        <ele>12.000000</ele>
        <time>2010-01-01T00:12:20Z</time>
      </trkpt>
      <trkpt lat="-34.5622700" lon="-58.4236960">
        <ele>13.000000</ele>
        <time>2010-01-01T00:12:37Z</time>
      </trkpt>
      <trkpt lat="-34.5625380" lon="-58.4234820">
        <ele>15.000000</ele>
        <time>2010-01-01T00:12:50Z</time>
      </trkpt>
      <trkpt lat="-34.5631700" lon="-58.4230520">
        <ele>18.000000</ele>
        <time>2010-01-01T00:13:19Z</time>
      </trkpt>
      <trkpt lat="-34.5635150" lon="-58.4228670">
        <ele>17.000000</ele>
        <time>2010-01-01T00:13:34Z</time>
      </trkpt>
      <trkpt lat="-34.5639100" lon="-58.4226060">
        <ele>16.000000</ele>
        <time>2010-01-01T00:13:52Z</time>
      </trkpt>
      <trkpt lat="-34.5642040" lon="-58.4223710">
        <ele>17.000000</ele>
        <time>2010-01-01T00:14:06Z</time>
      </trkpt>
      <trkpt lat="-34.5642740" lon="-58.4222880">
        <ele>18.000000</ele>
        <time>2010-01-01T00:14:10Z</time>
      </trkpt>
      <trkpt lat="-34.5644060" lon="-58.4221010">
        <ele>18.000000</ele>
        <time>2010-01-01T00:14:18Z</time>
      </trkpt>
      <trkpt lat="-34.5646720" lon="-58.4215640">
        <ele>11.000000</ele>
        <time>2010-01-01T00:14:39Z</time>
      </trkpt>
      <trkpt lat="-34.5648140" lon="-58.4212590">
        <ele>15.000000</ele>
        <time>2010-01-01T00:14:50Z</time>
      </trkpt>
      <trkpt lat="-34.5650040" lon="-58.4207900">
        <ele>20.000000</ele>
        <time>2010-01-01T00:15:08Z</time>
      </trkpt>
      <trkpt lat="-34.5651360" lon="-58.4205180">
        <ele>18.000000</ele>
        <time>2010-01-01T00:15:18Z</time>
      </trkpt>
      <trkpt lat="-34.5653660" lon="-58.4201010">
        <ele>19.000000</ele>
        <time>2010-01-01T00:15:35Z</time>
      </trkpt>
      <trkpt lat="-34.5656020" lon="-58.4195810">
        <ele>15.000000</ele>
        <time>2010-01-01T00:15:54Z</time>
      </trkpt>
      <trkpt lat="-34.5657420" lon="-58.4193810">
        <ele>15.000000</ele>
        <time>2010-01-01T00:16:03Z</time>
      </trkpt>
      <trkpt lat="-34.5658600" lon="-58.4191790">
        <ele>16.000000</ele>
        <time>2010-01-01T00:16:11Z</time>
      </trkpt>
      <trkpt lat="-34.5662930" lon="-58.4186250">
        <ele>16.000000</ele>
        <time>2010-01-01T00:16:36Z</time>
      </trkpt>
      <trkpt lat="-34.5664000" lon="-58.4184680">
        <ele>14.000000</ele>
        <time>2010-01-01T00:16:43Z</time>
      </trkpt>
      <trkpt lat="-34.5666910" lon="-58.4179710">
        <ele>11.000000</ele>
        <time>2010-01-01T00:17:03Z</time>
      </trkpt>
      <trkpt lat="-34.5669050" lon="-58.4175070">
        <ele>11.000000</ele>
        <time>2010-01-01T00:17:21Z</time>
      </trkpt>
      <trkpt lat="-34.5669530" lon="-58.4173660">
        <ele>10.000000</ele>
        <time>2010-01-01T00:17:26Z</time>
      </trkpt>
      <trkpt lat="-34.5670300" lon="-58.4172460">
        <ele>8.0000000</ele>
        <time>2010-01-01T00:17:31Z</time>
      </trkpt>
      <trkpt lat="-34.5671020" lon="-58.4171730">
        <ele>6.0000000</ele>
        <time>2010-01-01T00:17:34Z</time>
      </trkpt>
      <trkpt lat="-34.5674950" lon="-58.4169770">
        <ele>1.0000000</ele>
        <time>2010-01-01T00:17:51Z</time>
      </trkpt>
      <trkpt lat="-34.5675790" lon="-58.4169380">
        <ele>1.0000000</ele>
        <time>2010-01-01T00:17:55Z</time>
      </trkpt>
      <trkpt lat="-34.5678440" lon="-58.4168590">
        <ele>4.0000000</ele>
        <time>2010-01-01T00:18:06Z</time>
      </trkpt>
      <trkpt lat="-34.5679520" lon="-58.4168100">
        <ele>5.0000000</ele>
        <time>2010-01-01T00:18:11Z</time>
      </trkpt>
      <trkpt lat="-34.5680400" lon="-58.4167200">
        <ele>6.0000000</ele>
        <time>2010-01-01T00:18:15Z</time>
      </trkpt>
      <trkpt lat="-34.5681300" lon="-58.4166060">
        <ele>7.0000000</ele>
        <time>2010-01-01T00:18:20Z</time>
      </trkpt>
      <trkpt lat="-34.5684520" lon="-58.4161790">
        <ele>4.0000000</ele>
        <time>2010-01-01T00:18:39Z</time>
      </trkpt>
      <trkpt lat="-34.5688630" lon="-58.4156350">
        <ele>7.0000000</ele>
        <time>2010-01-01T00:19:04Z</time>
      </trkpt>
      <trkpt lat="-34.5694920" lon="-58.4147500">
        <ele>14.000000</ele>
        <time>2010-01-01T00:19:42Z</time>
      </trkpt>
      <trkpt lat="-34.5701530" lon="-58.4138720">
        <ele>2.0000000</ele>
        <time>2010-01-01T00:20:22Z</time>
      </trkpt>
      <trkpt lat="-34.5707640" lon="-58.4129840">
        <ele>12.000000</ele>
        <time>2010-01-01T00:21:00Z</time>
      </trkpt>
      <trkpt lat="-34.5711770" lon="-58.4124950">
        <ele>14.000000</ele>
        <time>2010-01-01T00:21:23Z</time>
      </trkpt>
      <trkpt lat="-34.5713940" lon="-58.4123210">
        <ele>13.000000</ele>
        <time>2010-01-01T00:21:33Z</time>
      </trkpt>
      <trkpt lat="-34.5715530" lon="-58.4122390">
        <ele>15.000000</ele>
        <time>2010-01-01T00:21:40Z</time>
      </trkpt>
      <trkpt lat="-34.5716390" lon="-58.4122180">
        <ele>16.000000</ele>
        <time>2010-01-01T00:21:44Z</time>
      </trkpt>
      <trkpt lat="-34.5717340" lon="-58.4122160">
        <ele>16.000000</ele>
        <time>2010-01-01T00:21:47Z</time>
      </trkpt>
      <trkpt lat="-34.5719070" lon="-58.4122710">
        <ele>15.000000</ele>
        <time>2010-01-01T00:21:55Z</time>
      </trkpt>
      <trkpt lat="-34.5721360" lon="-58.4124050">
        <ele>12.000000</ele>
        <time>2010-01-01T00:22:05Z</time>
      </trkpt>
      <trkpt lat="-34.5724040" lon="-58.4126320">
        <ele>14.000000</ele>
        <time>2010-01-01T00:22:18Z</time>
      </trkpt>
      <trkpt lat="-34.5732970" lon="-58.4133280">
        <ele>6.0000000</ele>
        <time>2010-01-01T00:23:00Z</time>
      </trkpt>
      <trkpt lat="-34.5735470" lon="-58.4135870">
        <ele>3.0000000</ele>
        <time>2010-01-01T00:23:13Z</time>
      </trkpt>
      <trkpt lat="-34.5739460" lon="-58.4139340">
        <ele>12.000000</ele>
        <time>2010-01-01T00:23:33Z</time>
      </trkpt>
      <trkpt lat="-34.5744330" lon="-58.4144220">
        <ele>12.000000</ele>
        <time>2010-01-01T00:23:58Z</time>
      </trkpt>
      <trkpt lat="-34.5745340" lon="-58.4145020">
        <ele>11.000000</ele>
        <time>2010-01-01T00:24:03Z</time>
      </trkpt>
      <trkpt lat="-34.5746480" lon="-58.4145400">
        <ele>10.000000</ele>
        <time>2010-01-01T00:24:08Z</time>
      </trkpt>
      <trkpt lat="-34.5747840" lon="-58.4145150">
        <ele>9.0000000</ele>
        <time>2010-01-01T00:24:13Z</time>
      </trkpt>
      <trkpt lat="-34.5749170" lon="-58.4144500">
        <ele>9.0000000</ele>
        <time>2010-01-01T00:24:19Z</time>
      </trkpt>
      <trkpt lat="-34.5750150" lon="-58.4143620">
        <ele>10.000000</ele>
        <time>2010-01-01T00:24:24Z</time>
      </trkpt>
      <trkpt lat="-34.5752150" lon="-58.4139500">
        <ele>15.000000</ele>
        <time>2010-01-01T00:24:40Z</time>
      </trkpt>
      <trkpt lat="-34.5755680" lon="-58.4131180">
        <ele>17.000000</ele>
        <time>2010-01-01T00:25:11Z</time>
      </trkpt>
      <trkpt lat="-34.5757330" lon="-58.4127940">
        <ele>19.000000</ele>
        <time>2010-01-01T00:25:23Z</time>
      </trkpt>
      <trkpt lat="-34.5759060" lon="-58.4123800">
        <ele>15.000000</ele>
        <time>2010-01-01T00:25:39Z</time>
      </trkpt>
      <trkpt lat="-34.5762790" lon="-58.4115940">
        <ele>16.000000</ele>
        <time>2010-01-01T00:26:08Z</time>
      </trkpt>
      <trkpt lat="-34.5765560" lon="-58.4109410">
        <ele>31.000000</ele>
        <time>2010-01-01T00:26:33Z</time>
      </trkpt>
      <trkpt lat="-34.5766380" lon="-58.4107690">
        <ele>33.000000</ele>
        <time>2010-01-01T00:26:39Z</time>
      </trkpt>
      <trkpt lat="-34.5768380" lon="-58.4104310">
        <ele>31.000000</ele>
        <time>2010-01-01T00:26:53Z</time>
      </trkpt>
      <trkpt lat="-34.5771200" lon="-58.4097380">
        <ele>28.000000</ele>
        <time>2010-01-01T00:27:18Z</time>
      </trkpt>
      <trkpt lat="-34.5772410" lon="-58.4094820">
        <ele>29.000000</ele>
        <time>2010-01-01T00:27:28Z</time>
      </trkpt>
      <trkpt lat="-34.5773700" lon="-58.4092510">
        <ele>25.000000</ele>
        <time>2010-01-01T00:27:37Z</time>
      </trkpt>
      <trkpt lat="-34.5777400" lon="-58.4083970">
        <ele>22.000000</ele>
        <time>2010-01-01T00:28:09Z</time>
      </trkpt>
      <trkpt lat="-34.5778480" lon="-58.4081780">
        <ele>23.000000</ele>
        <time>2010-01-01T00:28:18Z</time>
      </trkpt>
      <trkpt lat="-34.5783738" lon="-58.4071558">
        <ele>38.000000</ele>
        <time>2010-01-01T00:28:57Z</time>
      </trkpt>
      <trkpt lat="-34.5785490" lon="-58.4067860">
        <ele>30.000000</ele>
        <time>2010-01-01T00:29:11Z</time>
      </trkpt>
      <trkpt lat="-34.5787020" lon="-58.4065650">
        <ele>27.000000</ele>
        <time>2010-01-01T00:29:21Z</time>
      </trkpt>
      <trkpt lat="-34.5790420" lon="-58.4061730">
        <ele>25.000000</ele>
        <time>2010-01-01T00:29:40Z</time>
      </trkpt>
      <trkpt lat="-34.5794460" lon="-58.4057100">
        <ele>30.000000</ele>
        <time>2010-01-01T00:30:02Z</time>
      </trkpt>
      <trkpt lat="-34.5802040" lon="-58.4047970">
        <ele>33.000000</ele>
        <time>2010-01-01T00:30:45Z</time>
      </trkpt>
      <trkpt lat="-34.5806480" lon="-58.4042000">
        <ele>34.000000</ele>
        <time>2010-01-01T00:31:11Z</time>
      </trkpt>
      <trkpt lat="-34.5806990" lon="-58.4041200">
        <ele>35.000000</ele>
        <time>2010-01-01T00:31:14Z</time>
      </trkpt>
      <trkpt lat="-34.5812260" lon="-58.4032900">
        <ele>38.000000</ele>
        <time>2010-01-01T00:31:49Z</time>
      </trkpt>
      <trkpt lat="-34.5812770" lon="-58.4032200">
        <ele>38.000000</ele>
        <time>2010-01-01T00:31:52Z</time>
      </trkpt>
      <trkpt lat="-34.5813940" lon="-58.4029850">
        <ele>36.000000</ele>
        <time>2010-01-01T00:32:01Z</time>
      </trkpt>
      <trkpt lat="-34.5815250" lon="-58.4025650">
        <ele>30.000000</ele>
        <time>2010-01-01T00:32:16Z</time>
      </trkpt>
      <trkpt lat="-34.5820180" lon="-58.4011680">
        <ele>15.000000</ele>
        <time>2010-01-01T00:33:06Z</time>
      </trkpt>
      <trkpt lat="-34.5820780" lon="-58.4009220">
        <ele>16.000000</ele>
        <time>2010-01-01T00:33:14Z</time>
      </trkpt>
      <trkpt lat="-34.5824400" lon="-58.3998460">
        <ele>27.000000</ele>
        <time>2010-01-01T00:33:53Z</time>
      </trkpt>
      <trkpt lat="-34.5825950" lon="-58.3992860">
        <ele>15.000000</ele>
        <time>2010-01-01T00:34:12Z</time>
      </trkpt>
      <trkpt lat="-34.5827270" lon="-58.3987160">
        <ele>18.000000</ele>
        <time>2010-01-01T00:34:32Z</time>
      </trkpt>
      <trkpt lat="-34.5828920" lon="-58.3977030">
        <ele>15.000000</ele>
        <time>2010-01-01T00:35:06Z</time>
      </trkpt>
      <trkpt lat="-34.5830760" lon="-58.3966950">
        <ele>14.000000</ele>
        <time>2010-01-01T00:35:40Z</time>
      </trkpt>
      <trkpt lat="-34.5831780" lon="-58.3963290">
        <ele>14.000000</ele>
        <time>2010-01-01T00:35:53Z</time>
      </trkpt>
      <trkpt lat="-34.5836180" lon="-58.3949490">
        <ele>11.000000</ele>
        <time>2010-01-01T00:36:41Z</time>
      </trkpt>
      <trkpt lat="-34.5838510" lon="-58.3942680">
        <ele>16.000000</ele>
        <time>2010-01-01T00:37:06Z</time>
      </trkpt>
      <trkpt lat="-34.5844180" lon="-58.3924540">
        <ele>25.000000</ele>
        <time>2010-01-01T00:38:10Z</time>
      </trkpt>
      <trkpt lat="-34.5846900" lon="-58.3915930">
        <ele>13.000000</ele>
        <time>2010-01-01T00:38:40Z</time>
      </trkpt>
      <trkpt lat="-34.5849050" lon="-58.3909100">
        <ele>7.0000000</ele>
        <time>2010-01-01T00:39:04Z</time>
      </trkpt>
      <trkpt lat="-34.5849820" lon="-58.3903700">
        <ele>8.0000000</ele>
        <time>2010-01-01T00:39:22Z</time>
      </trkpt>
      <trkpt lat="-34.5850340" lon="-58.3897170">
        <ele>12.000000</ele>
        <time>2010-01-01T00:39:44Z</time>
      </trkpt>
      <trkpt lat="-34.5851000" lon="-58.3894170">
        <ele>14.000000</ele>
        <time>2010-01-01T00:39:54Z</time>
      </trkpt>
      <trkpt lat="-34.5851950" lon="-58.3891190">
        <ele>15.000000</ele>
        <time>2010-01-01T00:40:04Z</time>
      </trkpt>
      <trkpt lat="-34.5853320" lon="-58.3887930">
        <ele>18.000000</ele>
        <time>2010-01-01T00:40:17Z</time>
      </trkpt>
      <trkpt lat="-34.5855300" lon="-58.3882580">
        <ele>19.000000</ele>
        <time>2010-01-01T00:40:36Z</time>
      </trkpt>
      <trkpt lat="-34.5858730" lon="-58.3875670">
        <ele>18.000000</ele>
        <time>2010-01-01T00:41:02Z</time>
      </trkpt>
      <trkpt lat="-34.5860260" lon="-58.3871890">
        <ele>21.000000</ele>
        <time>2010-01-01T00:41:16Z</time>
      </trkpt>
      <trkpt lat="-34.5861390" lon="-58.3869720">
        <ele>21.000000</ele>
        <time>2010-01-01T00:41:25Z</time>
      </trkpt>
      <trkpt lat="-34.5862860" lon="-58.3866290">
        <ele>21.000000</ele>
        <time>2010-01-01T00:41:38Z</time>
      </trkpt>
      <trkpt lat="-34.5867390" lon="-58.3857180">
        <ele>20.000000</ele>
        <time>2010-01-01T00:42:13Z</time>
      </trkpt>
      <trkpt lat="-34.5868370" lon="-58.3855570">
        <ele>17.000000</ele>
        <time>2010-01-01T00:42:19Z</time>
      </trkpt>
      <trkpt lat="-34.5875180" lon="-58.3842660">
        <ele>21.000000</ele>
        <time>2010-01-01T00:43:10Z</time>
      </trkpt>
      <trkpt lat="-34.5876176" lon="-58.3841210">
        <ele>22.000000</ele>
        <time>2010-01-01T00:43:16Z</time>
      </trkpt>
      <trkpt lat="-34.5878760" lon="-58.3836300">
        <ele>20.000000</ele>
        <time>2010-01-01T00:43:35Z</time>
      </trkpt>
      <trkpt lat="-34.5884440" lon="-58.3825420">
        <ele>15.000000</ele>
        <time>2010-01-01T00:44:18Z</time>
      </trkpt>
      <trkpt lat="-34.5887950" lon="-58.3819820">
        <ele>16.000000</ele>
        <time>2010-01-01T00:44:41Z</time>
      </trkpt>
      <trkpt lat="-34.5890420" lon="-58.3815270">
        <ele>14.000000</ele>
        <time>2010-01-01T00:44:59Z</time>
      </trkpt>
      <trkpt lat="-34.5891170" lon="-58.3814320">
        <ele>13.000000</ele>
        <time>2010-01-01T00:45:03Z</time>
      </trkpt>
      <trkpt lat="-34.5893260" lon="-58.3810550">
        <ele>11.000000</ele>
        <time>2010-01-01T00:45:18Z</time>
      </trkpt>
      <trkpt lat="-34.5893960" lon="-58.3809950">
        <ele>11.000000</ele>
        <time>2010-01-01T00:45:22Z</time>
      </trkpt>
      <trkpt lat="-34.5903740" lon="-58.3813340">
        <ele>31.000000</ele>
        <time>2010-01-01T00:46:02Z</time>
      </trkpt>
      <trkpt lat="-34.5905940" lon="-58.3813950">
        <ele>28.000000</ele>
        <time>2010-01-01T00:46:11Z</time>
      </trkpt>
      <trkpt lat="-34.5907660" lon="-58.3814310">
        <ele>27.000000</ele>
        <time>2010-01-01T00:46:18Z</time>
      </trkpt>
      <trkpt lat="-34.5910120" lon="-58.3814480">
        <ele>27.000000</ele>
        <time>2010-01-01T00:46:28Z</time>
      </trkpt>
      <trkpt lat="-34.5916960" lon="-58.3815460">
        <ele>41.000000</ele>
        <time>2010-01-01T00:46:56Z</time>
      </trkpt>
      <trkpt lat="-34.5926060" lon="-58.3815550">
        <ele>43.000000</ele>
        <time>2010-01-01T00:47:32Z</time>
      </trkpt>
      <trkpt lat="-34.5931920" lon="-58.3815600">
        <ele>39.000000</ele>
        <time>2010-01-01T00:47:56Z</time>
      </trkpt>
      <trkpt lat="-34.5934110" lon="-58.3815470">
        <ele>40.000000</ele>
        <time>2010-01-01T00:48:04Z</time>
      </trkpt>
      <trkpt lat="-34.5935300" lon="-58.3815630">
        <ele>41.000000</ele>
        <time>2010-01-01T00:48:09Z</time>
      </trkpt>
      <trkpt lat="-34.5936400" lon="-58.3815580">
        <ele>41.000000</ele>
        <time>2010-01-01T00:48:14Z</time>
      </trkpt>
      <trkpt lat="-34.5944900" lon="-58.3814700">
        <ele>44.000000</ele>
        <time>2010-01-01T00:48:48Z</time>
      </trkpt>
      <trkpt lat="-34.5962080" lon="-58.3814300">
        <ele>39.000000</ele>
        <time>2010-01-01T00:49:57Z</time>
      </trkpt>
      <trkpt lat="-34.5966620" lon="-58.3814020">
        <ele>42.000000</ele>
        <time>2010-01-01T00:50:15Z</time>
      </trkpt>
      <trkpt lat="-34.5977524" lon="-58.3813369">
        <ele>26.000000</ele>
        <time>2010-01-01T00:50:58Z</time>
      </trkpt>
      <trkpt lat="-34.5996260" lon="-58.3812420">
        <ele>30.000000</ele>
        <time>2010-01-01T00:52:13Z</time>
      </trkpt>
      <trkpt lat="-34.6000930" lon="-58.3811920">
        <ele>32.000000</ele>
        <time>2010-01-01T00:52:32Z</time>
      </trkpt>
      <trkpt lat="-34.6007280" lon="-58.3811680">
        <ele>28.000000</ele>
        <time>2010-01-01T00:52:58Z</time>
      </trkpt>
      <trkpt lat="-34.6014370" lon="-58.3811050">
        <ele>32.000000</ele>
        <time>2010-01-01T00:53:26Z</time>
      </trkpt>
      <trkpt lat="-34.6016660" lon="-58.3810880">
        <ele>35.000000</ele>
        <time>2010-01-01T00:53:35Z</time>
      </trkpt>
      <trkpt lat="-34.6027862" lon="-58.3810365">
        <ele>38.000000</ele>
        <time>2010-01-01T00:54:20Z</time>
      </trkpt>
      <trkpt lat="-34.6030600" lon="-58.3810311">
        <ele>36.000000</ele>
        <time>2010-01-01T00:54:31Z</time>
      </trkpt>
      <trkpt lat="-34.6032890" lon="-58.3810690">
        <ele>32.000000</ele>
        <time>2010-01-01T00:54:40Z</time>
      </trkpt>
      <trkpt lat="-34.6038060" lon="-58.3809890">
        <ele>35.000000</ele>
        <time>2010-01-01T00:55:01Z</time>
      </trkpt>
      <trkpt lat="-34.6039220" lon="-58.3809610">
        <ele>35.000000</ele>
        <time>2010-01-01T00:55:06Z</time>
      </trkpt>
      <trkpt lat="-34.6040670" lon="-58.3808620">
        <ele>35.000000</ele>
        <time>2010-01-01T00:55:13Z</time>
      </trkpt>
      <trkpt lat="-34.6045436" lon="-58.3800119">
        <ele>46.000000</ele>
        <time>2010-01-01T00:55:47Z</time>
      </trkpt>
      <trkpt lat="-34.6046950" lon="-58.3797440">
        <ele>47.000000</ele>
        <time>2010-01-01T00:55:57Z</time>
      </trkpt>
      <trkpt lat="-34.6052480" lon="-58.3786350">
        <ele>45.000000</ele>
        <time>2010-01-01T00:56:40Z</time>
      </trkpt>
      <trkpt lat="-34.6059212" lon="-58.3773672">
        <ele>54.000000</ele>
        <time>2010-01-01T00:57:30Z</time>
      </trkpt>
      <trkpt lat="-34.6072723" lon="-58.3748030">
        <ele>49.000000</ele>
        <time>2010-01-01T00:59:10Z</time>
      </trkpt>
      <trkpt lat="-34.6079390" lon="-58.3736228">
        <ele>45.000000</ele>
        <time>2010-01-01T00:59:57Z</time>
      </trkpt>
      <trkpt lat="-34.6079910" lon="-58.3735660">
        <ele>44.000000</ele>
        <time>2010-01-01T01:00:00Z</time>
      </trkpt>
      <trkpt lat="-34.6085350" lon="-58.3734190">
        <ele>46.000000</ele>
        <time>2010-01-01T01:00:22Z</time>
      </trkpt>
      <trkpt lat="-34.6088397" lon="-58.3734351">
        <ele>47.000000</ele>
        <time>2010-01-01T01:00:34Z</time>
      </trkpt>
      <trkpt lat="-34.6090692" lon="-58.3735209">
        <ele>49.000000</ele>
        <time>2010-01-01T01:00:44Z</time>
      </trkpt>
      <trkpt lat="-34.6102393" lon="-58.3746796">
        <ele>42.000000</ele>
        <time>2010-01-01T01:01:45Z</time>
      </trkpt>
      <trkpt lat="-34.6105240" lon="-58.3750600">
        <ele>44.000000</ele>
        <time>2010-01-01T01:02:01Z</time>
      </trkpt>
      <trkpt lat="-34.6117227" lon="-58.3763319">
        <ele>43.000000</ele>
        <time>2010-01-01T01:03:05Z</time>
      </trkpt>
      <trkpt lat="-34.6123320" lon="-58.3770292">
        <ele>36.000000</ele>
        <time>2010-01-01T01:03:39Z</time>
      </trkpt>
      <trkpt lat="-34.6128397" lon="-58.3776193">
        <ele>42.000000</ele>
        <time>2010-01-01T01:04:07Z</time>
      </trkpt>
      <trkpt lat="-34.6129413" lon="-58.3796095">
        <ele>25.000000</ele>
        <time>2010-01-01T01:05:12Z</time>
      </trkpt>
      <trkpt lat="-34.6129880" lon="-58.3801620">
        <ele>28.000000</ele>
        <time>2010-01-01T01:05:31Z</time>
      </trkpt>
      <trkpt lat="-34.6129990" lon="-58.3803370">
        <ele>29.000000</ele>
        <time>2010-01-01T01:05:37Z</time>
      </trkpt>
      <trkpt lat="-34.6130340" lon="-58.3804550">
        <ele>30.000000</ele>
        <time>2010-01-01T01:05:41Z</time>
      </trkpt>
      <trkpt lat="-34.6140273" lon="-58.3804196">
        <ele>35.000000</ele>
        <time>2010-01-01T01:06:20Z</time>
      </trkpt>
      <trkpt lat="-34.6149059" lon="-58.3803713">
        <ele>25.000000</ele>
        <time>2010-01-01T01:06:56Z</time>
      </trkpt>
      <trkpt lat="-34.6160060" lon="-58.3803070">
        <ele>32.000000</ele>
        <time>2010-01-01T01:07:40Z</time>
      </trkpt>
      <trkpt lat="-34.6164010" lon="-58.3802730">
        <ele>29.000000</ele>
        <time>2010-01-01T01:07:56Z</time>
      </trkpt>
      <trkpt lat="-34.6168020" lon="-58.3802810">
        <ele>25.000000</ele>
        <time>2010-01-01T01:08:12Z</time>
      </trkpt>
      <trkpt lat="-34.6170240" lon="-58.3802700">
        <ele>28.000000</ele>
        <time>2010-01-01T01:08:21Z</time>
      </trkpt>
      <trkpt lat="-34.6179040" lon="-58.3802280">
        <ele>30.000000</ele>
        <time>2010-01-01T01:08:56Z</time>
      </trkpt>
      <trkpt lat="-34.6187000" lon="-58.3801880">
        <ele>28.000000</ele>
        <time>2010-01-01T01:09:28Z</time>
      </trkpt>
      <trkpt lat="-34.6194440" lon="-58.3801580">
        <ele>28.000000</ele>
        <time>2010-01-01T01:09:58Z</time>
      </trkpt>
      <trkpt lat="-34.6195790" lon="-58.3801350">
        <ele>27.000000</ele>
        <time>2010-01-01T01:10:03Z</time>
      </trkpt>
      <trkpt lat="-34.6206770" lon="-58.3800650">
        <ele>28.000000</ele>
        <time>2010-01-01T01:10:47Z</time>
      </trkpt>
      <trkpt lat="-34.6210300" lon="-58.3800420">
        <ele>33.000000</ele>
        <time>2010-01-01T01:11:01Z</time>
      </trkpt>
      <trkpt lat="-34.6211620" lon="-58.3800230">
        <ele>34.000000</ele>
        <time>2010-01-01T01:11:06Z</time>
      </trkpt>
      <trkpt lat="-34.6214240" lon="-58.3800120">
        <ele>33.000000</ele>
        <time>2010-01-01T01:11:17Z</time>
      </trkpt>
      <trkpt lat="-34.6220560" lon="-58.3799850">
        <ele>24.000000</ele>
        <time>2010-01-01T01:11:42Z</time>
      </trkpt>
      <trkpt lat="-34.6221580" lon="-58.3803850">
        <ele>26.000000</ele>
        <time>2010-01-01T01:11:56Z</time>
      </trkpt>
      <trkpt lat="-34.6222200" lon="-58.3805440">
        <ele>27.000000</ele>
        <time>2010-01-01T01:12:02Z</time>
      </trkpt>
      <trkpt lat="-34.6222830" lon="-58.3806410">
        <ele>27.000000</ele>
        <time>2010-01-01T01:12:06Z</time>
      </trkpt>
      <trkpt lat="-34.6224080" lon="-58.3806880">
        <ele>28.000000</ele>
        <time>2010-01-01T01:12:11Z</time>
      </trkpt>
      <trkpt lat="-34.6225040" lon="-58.3806650">
        <ele>28.000000</ele>
        <time>2010-01-01T01:12:15Z</time>
      </trkpt>
      <trkpt lat="-34.6227650" lon="-58.3806450">
        <ele>27.000000</ele>
        <time>2010-01-01T01:12:26Z</time>
      </trkpt>
      <trkpt lat="-34.6233180" lon="-58.3805400">
        <ele>17.000000</ele>
        <time>2010-01-01T01:12:48Z</time>
      </trkpt>
      <trkpt lat="-34.6236350" lon="-58.3804670">
        <ele>15.000000</ele>
        <time>2010-01-01T01:13:01Z</time>
      </trkpt>
      <trkpt lat="-34.6238800" lon="-58.3803940">
        <ele>17.000000</ele>
        <time>2010-01-01T01:13:11Z</time>
      </trkpt>
      <trkpt lat="-34.6246030" lon="-58.3801310">
        <ele>16.000000</ele>
        <time>2010-01-01T01:13:41Z</time>
      </trkpt>
      <trkpt lat="-34.6252190" lon="-58.3798770">
        <ele>21.000000</ele>
        <time>2010-01-01T01:14:07Z</time>
      </trkpt>
      <trkpt lat="-34.6263510" lon="-58.3795140">
        <ele>20.000000</ele>
        <time>2010-01-01T01:14:54Z</time>
      </trkpt>
      <trkpt lat="-34.6266850" lon="-58.3793800">
        <ele>21.000000</ele>
        <time>2010-01-01T01:15:08Z</time>
      </trkpt>
      <trkpt lat="-34.6269680" lon="-58.3792860">
        <ele>21.000000</ele>
        <time>2010-01-01T01:15:20Z</time>
      </trkpt>
      <trkpt lat="-34.6273170" lon="-58.3791320">
        <ele>24.000000</ele>
        <time>2010-01-01T01:15:35Z</time>
      </trkpt>
      <trkpt lat="-34.6288360" lon="-58.3786360">
        <ele>30.000000</ele>
        <time>2010-01-01T01:16:38Z</time>
      </trkpt>
      <trkpt lat="-34.6291860" lon="-58.3785620">
        <ele>33.000000</ele>
        <time>2010-01-01T01:16:52Z</time>
      </trkpt>
      <trkpt lat="-34.6297050" lon="-58.3784850">
        <ele>28.000000</ele>
        <time>2010-01-01T01:17:13Z</time>
      </trkpt>
      <trkpt lat="-34.6309520" lon="-58.3784660">
        <ele>21.000000</ele>
        <time>2010-01-01T01:18:03Z</time>
      </trkpt>
      <trkpt lat="-34.6320911" lon="-58.3784347">
        <ele>23.000000</ele>
        <time>2010-01-01T01:18:48Z</time>
      </trkpt>
      <trkpt lat="-34.6325220" lon="-58.3783180">
        <ele>21.000000</ele>
        <time>2010-01-01T01:19:06Z</time>
      </trkpt>
      <trkpt lat="-34.6328640" lon="-58.3782170">
        <ele>19.000000</ele>
        <time>2010-01-01T01:19:20Z</time>
      </trkpt>
      <trkpt lat="-34.6335300" lon="-58.3779500">
        <ele>11.000000</ele>
        <time>2010-01-01T01:19:48Z</time>
      </trkpt>
      <trkpt lat="-34.6343010" lon="-58.3777010">
        <ele>12.000000</ele>
        <time>2010-01-01T01:20:20Z</time>
      </trkpt>
      <trkpt lat="-34.6350410" lon="-58.3774260">
        <ele>8.0000000</ele>
        <time>2010-01-01T01:20:51Z</time>
      </trkpt>
      <trkpt lat="-34.6357630" lon="-58.3772240">
        <ele>12.000000</ele>
        <time>2010-01-01T01:21:21Z</time>
      </trkpt>
      <trkpt lat="-34.6360840" lon="-58.3771040">
        <ele>11.000000</ele>
        <time>2010-01-01T01:21:34Z</time>
      </trkpt>
      <trkpt lat="-34.6365280" lon="-58.3769860">
        <ele>12.000000</ele>
        <time>2010-01-01T01:21:52Z</time>
      </trkpt>
      <trkpt lat="-34.6380010" lon="-58.3766940">
        <ele>9.0000000</ele>
        <time>2010-01-01T01:22:52Z</time>
      </trkpt>
      <trkpt lat="-34.6396300" lon="-58.3763520">
        <ele>13.000000</ele>
        <time>2010-01-01T01:23:58Z</time>
      </trkpt>
      <trkpt lat="-34.6399660" lon="-58.3762720">
        <ele>14.000000</ele>
        <time>2010-01-01T01:24:12Z</time>
      </trkpt>
      <trkpt lat="-34.6416210" lon="-58.3759680">
        <ele>10.000000</ele>
        <time>2010-01-01T01:25:19Z</time>
      </trkpt>
      <trkpt lat="-34.6432460" lon="-58.3756140">
        <ele>11.000000</ele>
        <time>2010-01-01T01:26:25Z</time>
      </trkpt>
      <trkpt lat="-34.6436970" lon="-58.3755210">
        <ele>15.000000</ele>
        <time>2010-01-01T01:26:43Z</time>
      </trkpt>
      <trkpt lat="-34.6450360" lon="-58.3751860">
        <ele>13.000000</ele>
        <time>2010-01-01T01:27:38Z</time>
      </trkpt>
      <trkpt lat="-34.6453880" lon="-58.3750530">
        <ele>10.000000</ele>
        <time>2010-01-01T01:27:53Z</time>
      </trkpt>
      <trkpt lat="-34.6465620" lon="-58.3744910">
        <ele>11.000000</ele>
        <time>2010-01-01T01:28:43Z</time>
      </trkpt>
      <trkpt lat="-34.6468110" lon="-58.3743420">
        <ele>11.000000</ele>
        <time>2010-01-01T01:28:55Z</time>
      </trkpt>
      <trkpt lat="-34.6469251" lon="-58.3742183">
        <ele>10.000000</ele>
        <time>2010-01-01T01:29:01Z</time>
      </trkpt>
      <trkpt lat="-34.6468350" lon="-58.3737590">
        <ele>12.000000</ele>
        <time>2010-01-01T01:29:16Z</time>
      </trkpt>
      <trkpt lat="-34.6467300" lon="-58.3733800">
        <ele>13.000000</ele>
        <time>2010-01-01T01:29:29Z</time>
      </trkpt>
      <trkpt lat="-34.6467420" lon="-58.3732130">
        <ele>14.000000</ele>
        <time>2010-01-01T01:29:35Z</time>
      </trkpt>
      <trkpt lat="-34.6467830" lon="-58.3730960">
        <ele>15.000000</ele>
        <time>2010-01-01T01:29:39Z</time>
      </trkpt>
      <trkpt lat="-34.6468650" lon="-58.3730250">
        <ele>16.000000</ele>
        <time>2010-01-01T01:29:43Z</time>
      </trkpt>
      <trkpt lat="-34.6474800" lon="-58.3728950">
        <ele>15.000000</ele>
        <time>2010-01-01T01:30:08Z</time>
      </trkpt>
      <trkpt lat="-34.6478480" lon="-58.3728310">
        <ele>15.000000</ele>
        <time>2010-01-01T01:30:23Z</time>
      </trkpt>
      <trkpt lat="-34.6480390" lon="-58.3727850">
        <ele>15.000000</ele>
        <time>2010-01-01T01:30:31Z</time>
      </trkpt>
      <trkpt lat="-34.6489242" lon="-58.3725607">
        <ele>10.000000</ele>
        <time>2010-01-01T01:31:07Z</time>
      </trkpt>
      <trkpt lat="-34.6492250" lon="-58.3724430">
        <ele>9.0000000</ele>
        <time>2010-01-01T01:31:20Z</time>
      </trkpt>
      <trkpt lat="-34.6493360" lon="-58.3724120">
        <ele>9.0000000</ele>
        <time>2010-01-01T01:31:24Z</time>
      </trkpt>
      <trkpt lat="-34.6498509" lon="-58.3721959">
        <ele>10.000000</ele>
        <time>2010-01-01T01:31:46Z</time>
      </trkpt>
      <trkpt lat="-34.6503893" lon="-58.3719438">
        <ele>10.000000</ele>
        <time>2010-01-01T01:32:09Z</time>
      </trkpt>
      <trkpt lat="-34.6510960" lon="-58.3715480">
        <ele>7.0000000</ele>
        <time>2010-01-01T01:32:40Z</time>
      </trkpt>
      <trkpt lat="-34.6512000" lon="-58.3714440">
        <ele>10.000000</ele>
        <time>2010-01-01T01:32:46Z</time>
      </trkpt>
      <trkpt lat="-34.6512030" lon="-58.3713040">
        <ele>11.000000</ele>
        <time>2010-01-01T01:32:50Z</time>
      </trkpt>
      <trkpt lat="-34.6509910" lon="-58.3702680">
        <ele>11.000000</ele>
        <time>2010-01-01T01:33:25Z</time>
      </trkpt>
      <trkpt lat="-34.6508350" lon="-58.3697640">
        <ele>7.0000000</ele>
        <time>2010-01-01T01:33:43Z</time>
      </trkpt>
      <trkpt lat="-34.6506230" lon="-58.3692240">
        <ele>9.0000000</ele>
        <time>2010-01-01T01:34:03Z</time>
      </trkpt>
      <trkpt lat="-34.6503890" lon="-58.3686780">
        <ele>9.0000000</ele>
        <time>2010-01-01T01:34:23Z</time>
      </trkpt>
      <trkpt lat="-34.6499610" lon="-58.3677830">
        <ele>2.0000000</ele>
        <time>2010-01-01T01:34:57Z</time>
      </trkpt>
      <trkpt lat="-34.6497870" lon="-58.3673800">
        <ele>8.0000000</ele>
        <time>2010-01-01T01:35:12Z</time>
      </trkpt>
      <trkpt lat="-34.6496140" lon="-58.3670340">
        <ele>9.0000000</ele>
        <time>2010-01-01T01:35:26Z</time>
      </trkpt>
      <trkpt lat="-34.6493070" lon="-58.3665490">
        <ele>6.0000000</ele>
        <time>2010-01-01T01:35:46Z</time>
      </trkpt>
      <trkpt lat="-34.6489750" lon="-58.3659200">
        <ele>6.0000000</ele>
        <time>2010-01-01T01:36:10Z</time>
      </trkpt>
      <trkpt lat="-34.6486240" lon="-58.3653000">
        <ele>5.0000000</ele>
        <time>2010-01-01T01:36:35Z</time>
      </trkpt>
      <trkpt lat="-34.6484750" lon="-58.3651270">
        <ele>5.0000000</ele>
        <time>2010-01-01T01:36:43Z</time>
      </trkpt>
      <trkpt lat="-34.6482960" lon="-58.3649790">
        <ele>5.0000000</ele>
        <time>2010-01-01T01:36:52Z</time>
      </trkpt>
      <trkpt lat="-34.6482180" lon="-58.3649460">
        <ele>5.0000000</ele>
        <time>2010-01-01T01:36:55Z</time>
      </trkpt>
      <trkpt lat="-34.6481070" lon="-58.3649300">
        <ele>6.0000000</ele>
        <time>2010-01-01T01:37:00Z</time>
      </trkpt>
      <trkpt lat="-34.6479140" lon="-58.3649610">
        <ele>9.0000000</ele>
        <time>2010-01-01T01:37:08Z</time>
      </trkpt>
      <trkpt lat="-34.6448130" lon="-58.3654580">
        <ele>11.000000</ele>
        <time>2010-01-01T01:39:13Z</time>
      </trkpt>
      <trkpt lat="-34.6445690" lon="-58.3654990">
        <ele>10.000000</ele>
        <time>2010-01-01T01:39:23Z</time>
      </trkpt>
      <trkpt lat="-34.6438390" lon="-58.3656270">
        <ele>9.0000000</ele>
        <time>2010-01-01T01:39:52Z</time>
      </trkpt>
      <trkpt lat="-34.6423882" lon="-58.3658176">
        <ele>9.0000000</ele>
        <time>2010-01-01T01:40:51Z</time>
      </trkpt>
      <trkpt lat="-34.6409420" lon="-58.3660450">
        <ele>8.0000000</ele>
        <time>2010-01-01T01:41:49Z</time>
      </trkpt>
      <trkpt lat="-34.6391134" lon="-58.3663004">
        <ele>10.000000</ele>
        <time>2010-01-01T01:43:03Z</time>
      </trkpt>
      <trkpt lat="-34.6379129" lon="-58.3664774">
        <ele>11.000000</ele>
        <time>2010-01-01T01:43:51Z</time>
      </trkpt>
      <trkpt lat="-34.6370346" lon="-58.3666169">
        <ele>9.0000000</ele>
        <time>2010-01-01T01:44:27Z</time>
      </trkpt>
      <trkpt lat="-34.6369816" lon="-58.3662736">
        <ele>9.0000000</ele>
        <time>2010-01-01T01:44:38Z</time>
      </trkpt>
      <trkpt lat="-34.6368757" lon="-58.3655118">
        <ele>12.000000</ele>
        <time>2010-01-01T01:45:03Z</time>
      </trkpt>
      <trkpt lat="-34.6368340" lon="-58.3653030">
        <ele>12.000000</ele>
        <time>2010-01-01T01:45:11Z</time>
      </trkpt>
      <trkpt lat="-34.6367620" lon="-58.3649980">
        <ele>12.000000</ele>
        <time>2010-01-01T01:45:21Z</time>
      </trkpt>
      <trkpt lat="-34.6365840" lon="-58.3645650">
        <ele>11.000000</ele>
        <time>2010-01-01T01:45:37Z</time>
      </trkpt>
      <trkpt lat="-34.6360901" lon="-58.3633178">
        <ele>11.000000</ele>
        <time>2010-01-01T01:46:23Z</time>
      </trkpt>
      <trkpt lat="-34.6356575" lon="-58.3622932">
        <ele>11.000000</ele>
        <time>2010-01-01T01:47:00Z</time>
      </trkpt>
      <trkpt lat="-34.6349390" lon="-58.3604870">
        <ele>17.000000</ele>
        <time>2010-01-01T01:48:07Z</time>
      </trkpt>
      <trkpt lat="-34.6345610" lon="-58.3595860">
        <ele>16.000000</ele>
        <time>2010-01-01T01:48:40Z</time>
      </trkpt>
      <trkpt lat="-34.6340240" lon="-58.3583060">
        <ele>7.0000000</ele>
        <time>2010-01-01T01:49:27Z</time>
      </trkpt>
      <trkpt lat="-34.6337560" lon="-58.3576560">
        <ele>7.0000000</ele>
        <time>2010-01-01T01:49:51Z</time>
      </trkpt>
      <trkpt lat="-34.6334300" lon="-58.3568270">
        <ele>10.000000</ele>
        <time>2010-01-01T01:50:21Z</time>
      </trkpt>
      <trkpt lat="-34.6333359" lon="-58.3566337">
        <ele>10.000000</ele>
        <time>2010-01-01T01:50:29Z</time>
      </trkpt>
      <trkpt lat="-34.6330980" lon="-58.3567120">
        <ele>11.000000</ele>
        <time>2010-01-01T01:50:39Z</time>
      </trkpt>
      <trkpt lat="-34.6328720" lon="-58.3568340">
        <ele>11.000000</ele>
        <time>2010-01-01T01:50:49Z</time>
      </trkpt>
      <trkpt lat="-34.6321580" lon="-58.3572620">
        <ele>8.0000000</ele>
        <time>2010-01-01T01:51:20Z</time>
      </trkpt>
      <trkpt lat="-34.6320830" lon="-58.3573060">
        <ele>8.0000000</ele>
        <time>2010-01-01T01:51:24Z</time>
      </trkpt>
      <trkpt lat="-34.6318050" lon="-58.3574840">
        <ele>8.0000000</ele>
        <time>2010-01-01T01:51:36Z</time>
      </trkpt>
      <trkpt lat="-34.6308332" lon="-58.3580178">
        <ele>12.000000</ele>
        <time>2010-01-01T01:52:19Z</time>
      </trkpt>
      <trkpt lat="-34.6307272" lon="-58.3579963">
        <ele>12.000000</ele>
        <time>2010-01-01T01:52:23Z</time>
      </trkpt>
      <trkpt lat="-34.6289042" lon="-58.3562743">
        <ele>11.000000</ele>
        <time>2010-01-01T01:53:56Z</time>
      </trkpt>
      <trkpt lat="-34.6286394" lon="-58.3560919">
        <ele>11.000000</ele>
        <time>2010-01-01T01:54:08Z</time>
      </trkpt>
      <trkpt lat="-34.6285540" lon="-58.3561060">
        <ele>11.000000</ele>
        <time>2010-01-01T01:54:11Z</time>
      </trkpt>
      <trkpt lat="-34.6270540" lon="-58.3583550">
        <ele>13.000000</ele>
        <time>2010-01-01T01:55:47Z</time>
      </trkpt>
      <trkpt lat="-34.6268960" lon="-58.3586010">
        <ele>15.000000</ele>
        <time>2010-01-01T01:55:57Z</time>
      </trkpt>
      <trkpt lat="-34.6261380" lon="-58.3598130">
        <ele>10.000000</ele>
        <time>2010-01-01T01:56:47Z</time>
      </trkpt>
      <trkpt lat="-34.6251830" lon="-58.3611750">
        <ele>11.000000</ele>
        <time>2010-01-01T01:57:46Z</time>
      </trkpt>
      <trkpt lat="-34.6246920" lon="-58.3619810">
        <ele>5.0000000</ele>
        <time>2010-01-01T01:58:19Z</time>
      </trkpt>
      <trkpt lat="-34.6246230" lon="-58.3621110">
        <ele>5.0000000</ele>
        <time>2010-01-01T01:58:24Z</time>
      </trkpt>
      <trkpt lat="-34.6244679" lon="-58.3623415">
        <ele>6.0000000</ele>
        <time>2010-01-01T01:58:34Z</time>
      </trkpt>
      <trkpt lat="-34.6243708" lon="-58.3624058">
        <ele>8.0000000</ele>
        <time>2010-01-01T01:58:38Z</time>
      </trkpt>
      <trkpt lat="-34.6242693" lon="-58.3623951">
        <ele>9.0000000</ele>
        <time>2010-01-01T01:58:43Z</time>
      </trkpt>
      <trkpt lat="-34.6241457" lon="-58.3622986">
        <ele>9.0000000</ele>
        <time>2010-01-01T01:58:48Z</time>
      </trkpt>
      <trkpt lat="-34.6237395" lon="-58.3619713">
        <ele>10.000000</ele>
        <time>2010-01-01T01:59:08Z</time>
      </trkpt>
      <trkpt lat="-34.6232930" lon="-58.3615580">
        <ele>7.0000000</ele>
        <time>2010-01-01T01:59:30Z</time>
      </trkpt>
      <trkpt lat="-34.6230510" lon="-58.3612560">
        <ele>4.0000000</ele>
        <time>2010-01-01T01:59:44Z</time>
      </trkpt>
      <trkpt lat="-34.6226380" lon="-58.3608380">
        <ele>10.000000</ele>
        <time>2010-01-01T02:00:06Z</time>
      </trkpt>
      <trkpt lat="-34.6218880" lon="-58.3601760">
        <ele>5.0000000</ele>
        <time>2010-01-01T02:00:43Z</time>
      </trkpt>
      <trkpt lat="-34.6211680" lon="-58.3594680">
        <ele>5.0000000</ele>
        <time>2010-01-01T02:01:20Z</time>
      </trkpt>
      <trkpt lat="-34.6209090" lon="-58.3591500">
        <ele>4.0000000</ele>
        <time>2010-01-01T02:01:35Z</time>
      </trkpt>
      <trkpt lat="-34.6208380" lon="-58.3590380">
        <ele>4.0000000</ele>
        <time>2010-01-01T02:01:39Z</time>
      </trkpt>
      <trkpt lat="-34.6208613" lon="-58.3589190">
        <ele>5.0000000</ele>
        <time>2010-01-01T02:01:43Z</time>
      </trkpt>
      <trkpt lat="-34.6209390" lon="-58.3588600">
        <ele>6.0000000</ele>
        <time>2010-01-01T02:01:47Z</time>
      </trkpt>
      <trkpt lat="-34.6220490" lon="-58.3586840">
        <ele>9.0000000</ele>
        <time>2010-01-01T02:02:32Z</time>
      </trkpt>
      <trkpt lat="-34.6224220" lon="-58.3586240">
        <ele>9.0000000</ele>
        <time>2010-01-01T02:02:47Z</time>
      </trkpt>
      <trkpt lat="-34.6225830" lon="-58.3585971">
        <ele>8.0000000</ele>
        <time>2010-01-01T02:02:53Z</time>
      </trkpt>
      <trkpt lat="-34.6226095" lon="-58.3585059">
        <ele>8.0000000</ele>
        <time>2010-01-01T02:02:57Z</time>
      </trkpt>
      <trkpt lat="-34.6225344" lon="-58.3572882">
        <ele>9.0000000</ele>
        <time>2010-01-01T02:03:37Z</time>
      </trkpt>
      <trkpt lat="-34.6224800" lon="-58.3564180">
        <ele>9.0000000</ele>
        <time>2010-01-01T02:04:06Z</time>
      </trkpt>
      <trkpt lat="-34.6223500" lon="-58.3547040">
        <ele>11.000000</ele>
        <time>2010-01-01T02:05:02Z</time>
      </trkpt>
      <trkpt lat="-34.6224210" lon="-58.3545780">
        <ele>10.000000</ele>
        <time>2010-01-01T02:05:07Z</time>
      </trkpt>
      <trkpt lat="-34.6231450" lon="-58.3539700">
        <ele>8.0000000</ele>
        <time>2010-01-01T02:05:43Z</time>
      </trkpt>
      <trkpt lat="-34.6235320" lon="-58.3536880">
        <ele>9.0000000</ele>
        <time>2010-01-01T02:06:01Z</time>
      </trkpt>
      <trkpt lat="-34.6236890" lon="-58.3535300">
        <ele>8.0000000</ele>
        <time>2010-01-01T02:06:09Z</time>
      </trkpt>
      <trkpt lat="-34.6237590" lon="-58.3534080">
        <ele>8.0000000</ele>
        <time>2010-01-01T02:06:14Z</time>
      </trkpt>
      <trkpt lat="-34.6237500" lon="-58.3532600">
        <ele>8.0000000</ele>
        <time>2010-01-01T02:06:19Z</time>
      </trkpt>
      <trkpt lat="-34.6236190" lon="-58.3532120">
        <ele>10.000000</ele>
        <time>2010-01-01T02:06:24Z</time>
      </trkpt>
      <trkpt lat="-34.6233700" lon="-58.3532980">
        <ele>10.000000</ele>
        <time>2010-01-01T02:06:34Z</time>
      </trkpt>
      <trkpt lat="-34.6231400" lon="-58.3534100">
        <ele>9.0000000</ele>
        <time>2010-01-01T02:06:44Z</time>
      </trkpt>
      <trkpt lat="-34.6219270" lon="-58.3541700">
        <ele>9.0000000</ele>
        <time>2010-01-01T02:07:39Z</time>
      </trkpt>
      <trkpt lat="-34.6207830" lon="-58.3548170">
        <ele>8.0000000</ele>
        <time>2010-01-01T02:08:29Z</time>
      </trkpt>
      <trkpt lat="-34.6204480" lon="-58.3549750">
        <ele>6.0000000</ele>
        <time>2010-01-01T02:08:44Z</time>
      </trkpt>
      <trkpt lat="-34.6203190" lon="-58.3550580">
        <ele>6.0000000</ele>
        <time>2010-01-01T02:08:50Z</time>
      </trkpt>
      <trkpt lat="-34.6200100" lon="-58.3552130">
        <ele>7.0000000</ele>
        <time>2010-01-01T02:09:03Z</time>
      </trkpt>
      <trkpt lat="-34.6188290" lon="-58.3558270">
        <ele>7.0000000</ele>
        <time>2010-01-01T02:09:55Z</time>
      </trkpt>
      <trkpt lat="-34.6181160" lon="-58.3561300">
        <ele>10.000000</ele>
        <time>2010-01-01T02:10:25Z</time>
      </trkpt>
      <trkpt lat="-34.6177740" lon="-58.3563280">
        <ele>7.0000000</ele>
        <time>2010-01-01T02:10:40Z</time>
      </trkpt>
      <trkpt lat="-34.6174660" lon="-58.3565390">
        <ele>6.0000000</ele>
        <time>2010-01-01T02:10:54Z</time>
      </trkpt>
      <trkpt lat="-34.6172720" lon="-58.3567060">
        <ele>9.0000000</ele>
        <time>2010-01-01T02:11:04Z</time>
      </trkpt>
      <trkpt lat="-34.6170960" lon="-58.3569150">
        <ele>10.000000</ele>
        <time>2010-01-01T02:11:13Z</time>
      </trkpt>
      <trkpt lat="-34.6170500" lon="-58.3570550">
        <ele>10.000000</ele>
        <time>2010-01-01T02:11:18Z</time>
      </trkpt>
      <trkpt lat="-34.6170880" lon="-58.3573670">
        <ele>10.000000</ele>
        <time>2010-01-01T02:11:29Z</time>
      </trkpt>
      <trkpt lat="-34.6171900" lon="-58.3576450">
        <ele>11.000000</ele>
        <time>2010-01-01T02:11:39Z</time>
      </trkpt>
      <trkpt lat="-34.6172640" lon="-58.3577670">
        <ele>12.000000</ele>
        <time>2010-01-01T02:11:44Z</time>
      </trkpt>
      <trkpt lat="-34.6173640" lon="-58.3578660">
        <ele>12.000000</ele>
        <time>2010-01-01T02:11:49Z</time>
      </trkpt>
      <trkpt lat="-34.6174480" lon="-58.3579070">
        <ele>11.000000</ele>
        <time>2010-01-01T02:11:53Z</time>
      </trkpt>
      <trkpt lat="-34.6177730" lon="-58.3579480">
        <ele>7.0000000</ele>
        <time>2010-01-01T02:12:06Z</time>
      </trkpt>
      <trkpt lat="-34.6181470" lon="-58.3578920">
        <ele>8.0000000</ele>
        <time>2010-01-01T02:12:21Z</time>
      </trkpt>
      <trkpt lat="-34.6188060" lon="-58.3578250">
        <ele>5.0000000</ele>
        <time>2010-01-01T02:12:47Z</time>
      </trkpt>
      <trkpt lat="-34.6190710" lon="-58.3578320">
        <ele>6.0000000</ele>
        <time>2010-01-01T02:12:58Z</time>
      </trkpt>
      <trkpt lat="-34.6191320" lon="-58.3578410">
        <ele>6.0000000</ele>
        <time>2010-01-01T02:13:00Z</time>
      </trkpt>
      <trkpt lat="-34.6192510" lon="-58.3578880">
        <ele>8.0000000</ele>
        <time>2010-01-01T02:13:05Z</time>
      </trkpt>
      <trkpt lat="-34.6194500" lon="-58.3580260">
        <ele>11.000000</ele>
        <time>2010-01-01T02:13:14Z</time>
      </trkpt>
      <trkpt lat="-34.6199290" lon="-58.3584540">
        <ele>10.000000</ele>
        <time>2010-01-01T02:13:38Z</time>
      </trkpt>
      <trkpt lat="-34.6202060" lon="-58.3587270">
        <ele>8.0000000</ele>
        <time>2010-01-01T02:13:53Z</time>
      </trkpt>
      <trkpt lat="-34.6203480" lon="-58.3588900">
        <ele>6.0000000</ele>
        <time>2010-01-01T02:14:00Z</time>
      </trkpt>
      <trkpt lat="-34.6204650" lon="-58.3590480">
        <ele>4.0000000</ele>
        <time>2010-01-01T02:14:07Z</time>
      </trkpt>
      <trkpt lat="-34.6205100" lon="-58.3591430">
        <ele>3.0000000</ele>
        <time>2010-01-01T02:14:11Z</time>
      </trkpt>
      <trkpt lat="-34.6204993" lon="-58.3592945">
        <ele>2.0000000</ele>
        <time>2010-01-01T02:14:16Z</time>
      </trkpt>
      <trkpt lat="-34.6203120" lon="-58.3593510">
        <ele>3.0000000</ele>
        <time>2010-01-01T02:14:24Z</time>
      </trkpt>
      <trkpt lat="-34.6189680" lon="-58.3594910">
        <ele>11.000000</ele>
        <time>2010-01-01T02:15:18Z</time>
      </trkpt>
      <trkpt lat="-34.6184598" lon="-58.3595627">
        <ele>9.0000000</ele>
        <time>2010-01-01T02:15:38Z</time>
      </trkpt>
      <trkpt lat="-34.6178638" lon="-58.3597129">
        <ele>12.000000</ele>
        <time>2010-01-01T02:16:03Z</time>
      </trkpt>
      <trkpt lat="-34.6174160" lon="-58.3598610">
        <ele>11.000000</ele>
        <time>2010-01-01T02:16:21Z</time>
      </trkpt>
      <trkpt lat="-34.6170450" lon="-58.3599270">
        <ele>11.000000</ele>
        <time>2010-01-01T02:16:36Z</time>
      </trkpt>
      <trkpt lat="-34.6164650" lon="-58.3601310">
        <ele>12.000000</ele>
        <time>2010-01-01T02:17:00Z</time>
      </trkpt>
      <trkpt lat="-34.6154090" lon="-58.3604980">
        <ele>8.0000000</ele>
        <time>2010-01-01T02:17:44Z</time>
      </trkpt>
      <trkpt lat="-34.6148485" lon="-58.3606946">
        <ele>8.0000000</ele>
        <time>2010-01-01T02:18:08Z</time>
      </trkpt>
      <trkpt lat="-34.6145240" lon="-58.3607440">
        <ele>8.0000000</ele>
        <time>2010-01-01T02:18:21Z</time>
      </trkpt>
      <trkpt lat="-34.6143140" lon="-58.3606840">
        <ele>8.0000000</ele>
        <time>2010-01-01T02:18:29Z</time>
      </trkpt>
      <trkpt lat="-34.6140940" lon="-58.3605920">
        <ele>7.0000000</ele>
        <time>2010-01-01T02:18:39Z</time>
      </trkpt>
      <trkpt lat="-34.6139920" lon="-58.3605380">
        <ele>7.0000000</ele>
        <time>2010-01-01T02:18:43Z</time>
      </trkpt>
      <trkpt lat="-34.6137978" lon="-58.3603566">
        <ele>7.0000000</ele>
        <time>2010-01-01T02:18:53Z</time>
      </trkpt>
      <trkpt lat="-34.6132017" lon="-58.3597129">
        <ele>7.0000000</ele>
        <time>2010-01-01T02:19:25Z</time>
      </trkpt>
      <trkpt lat="-34.6127338" lon="-58.3591443">
        <ele>10.000000</ele>
        <time>2010-01-01T02:19:51Z</time>
      </trkpt>
      <trkpt lat="-34.6126719" lon="-58.3590799">
        <ele>10.000000</ele>
        <time>2010-01-01T02:19:55Z</time>
      </trkpt>
      <trkpt lat="-34.6125704" lon="-58.3589780">
        <ele>10.000000</ele>
        <time>2010-01-01T02:20:00Z</time>
      </trkpt>
      <trkpt lat="-34.6124689" lon="-58.3588439">
        <ele>10.000000</ele>
        <time>2010-01-01T02:20:06Z</time>
      </trkpt>
      <trkpt lat="-34.6123232" lon="-58.3588063">
        <ele>10.000000</ele>
        <time>2010-01-01T02:20:12Z</time>
      </trkpt>
      <trkpt lat="-34.6117315" lon="-58.3588439">
        <ele>9.0000000</ele>
        <time>2010-01-01T02:20:36Z</time>
      </trkpt>
      <trkpt lat="-34.6115064" lon="-58.3587741">
        <ele>10.000000</ele>
        <time>2010-01-01T02:20:45Z</time>
      </trkpt>
      <trkpt lat="-34.6105410" lon="-58.3589310">
        <ele>12.000000</ele>
        <time>2010-01-01T02:21:24Z</time>
      </trkpt>
      <trkpt lat="-34.6104130" lon="-58.3589550">
        <ele>12.000000</ele>
        <time>2010-01-01T02:21:29Z</time>
      </trkpt>
      <trkpt lat="-34.6102010" lon="-58.3590490">
        <ele>12.000000</ele>
        <time>2010-01-01T02:21:38Z</time>
      </trkpt>
      <trkpt lat="-34.6085820" lon="-58.3596140">
        <ele>17.000000</ele>
        <time>2010-01-01T02:22:46Z</time>
      </trkpt>
      <trkpt lat="-34.6082630" lon="-58.3597430">
        <ele>16.000000</ele>
        <time>2010-01-01T02:22:59Z</time>
      </trkpt>
      <trkpt lat="-34.6070890" lon="-58.3601660">
        <ele>12.000000</ele>
        <time>2010-01-01T02:23:48Z</time>
      </trkpt>
      <trkpt lat="-34.6051820" lon="-58.3608360">
        <ele>6.0000000</ele>
        <time>2010-01-01T02:25:07Z</time>
      </trkpt>
      <trkpt lat="-34.6049240" lon="-58.3608940">
        <ele>7.0000000</ele>
        <time>2010-01-01T02:25:18Z</time>
      </trkpt>
      <trkpt lat="-34.6047510" lon="-58.3609780">
        <ele>8.0000000</ele>
        <time>2010-01-01T02:25:25Z</time>
      </trkpt>
      <trkpt lat="-34.6043361" lon="-58.3611291">
        <ele>9.0000000</ele>
        <time>2010-01-01T02:25:43Z</time>
      </trkpt>
      <trkpt lat="-34.6038040" lon="-58.3613220">
        <ele>10.000000</ele>
        <time>2010-01-01T02:26:05Z</time>
      </trkpt>
      <trkpt lat="-34.6024360" lon="-58.3617910">
        <ele>9.0000000</ele>
        <time>2010-01-01T02:27:02Z</time>
      </trkpt>
      <trkpt lat="-34.5996997" lon="-58.3627116">
        <ele>10.000000</ele>
        <time>2010-01-01T02:28:56Z</time>
      </trkpt>
      <trkpt lat="-34.5984236" lon="-58.3631891">
        <ele>9.0000000</ele>
        <time>2010-01-01T02:29:49Z</time>
      </trkpt>
      <trkpt lat="-34.5983132" lon="-58.3632749">
        <ele>9.0000000</ele>
        <time>2010-01-01T02:29:54Z</time>
      </trkpt>
      <trkpt lat="-34.5982840" lon="-58.3633960">
        <ele>9.0000000</ele>
        <time>2010-01-01T02:29:58Z</time>
      </trkpt>
      <trkpt lat="-34.5983529" lon="-58.3635431">
        <ele>9.0000000</ele>
        <time>2010-01-01T02:30:04Z</time>
      </trkpt>
      <trkpt lat="-34.5984678" lon="-58.3635967">
        <ele>9.0000000</ele>
        <time>2010-01-01T02:30:09Z</time>
      </trkpt>
      <trkpt lat="-34.5988900" lon="-58.3635000">
        <ele>11.000000</ele>
        <time>2010-01-01T02:30:26Z</time>
      </trkpt>
      <trkpt lat="-34.5990470" lon="-58.3634610">
        <ele>12.000000</ele>
        <time>2010-01-01T02:30:33Z</time>
      </trkpt>
      <trkpt lat="-34.5994670" lon="-58.3633340">
        <ele>13.000000</ele>
        <time>2010-01-01T02:30:50Z</time>
      </trkpt>
      <trkpt lat="-34.5999520" lon="-58.3631720">
        <ele>10.000000</ele>
        <time>2010-01-01T02:31:10Z</time>
      </trkpt>
      <trkpt lat="-34.6004580" lon="-58.3630060">
        <ele>8.0000000</ele>
        <time>2010-01-01T02:31:31Z</time>
      </trkpt>
      <trkpt lat="-34.6008890" lon="-58.3628440">
        <ele>9.0000000</ele>
        <time>2010-01-01T02:31:49Z</time>
      </trkpt>
      <trkpt lat="-34.6019770" lon="-58.3624520">
        <ele>12.000000</ele>
        <time>2010-01-01T02:32:34Z</time>
      </trkpt>
      <trkpt lat="-34.6023620" lon="-58.3623220">
        <ele>11.000000</ele>
        <time>2010-01-01T02:32:50Z</time>
      </trkpt>
      <trkpt lat="-34.6030467" lon="-58.3621215">
        <ele>5.0000000</ele>
        <time>2010-01-01T02:33:19Z</time>
      </trkpt>
      <trkpt lat="-34.6038350" lon="-58.3618290">
        <ele>11.000000</ele>
        <time>2010-01-01T02:33:52Z</time>
      </trkpt>
      <trkpt lat="-34.6056651" lon="-58.3611774">
        <ele>11.000000</ele>
        <time>2010-01-01T02:35:08Z</time>
      </trkpt>
      <trkpt lat="-34.6068030" lon="-58.3607670">
        <ele>17.000000</ele>
        <time>2010-01-01T02:35:55Z</time>
      </trkpt>
      <trkpt lat="-34.6081500" lon="-58.3602980">
        <ele>17.000000</ele>
        <time>2010-01-01T02:36:52Z</time>
      </trkpt>
      <trkpt lat="-34.6100520" lon="-58.3596350">
        <ele>14.000000</ele>
        <time>2010-01-01T02:38:11Z</time>
      </trkpt>
      <trkpt lat="-34.6104440" lon="-58.3595500">
        <ele>13.000000</ele>
        <time>2010-01-01T02:38:27Z</time>
      </trkpt>
      <trkpt lat="-34.6105260" lon="-58.3595660">
        <ele>13.000000</ele>
        <time>2010-01-01T02:38:30Z</time>
      </trkpt>
      <trkpt lat="-34.6105990" lon="-58.3596230">
        <ele>13.000000</ele>
        <time>2010-01-01T02:38:34Z</time>
      </trkpt>
      <trkpt lat="-34.6106540" lon="-58.3597160">
        <ele>14.000000</ele>
        <time>2010-01-01T02:38:37Z</time>
      </trkpt>
      <trkpt lat="-34.6106780" lon="-58.3598220">
        <ele>14.000000</ele>
        <time>2010-01-01T02:38:41Z</time>
      </trkpt>
      <trkpt lat="-34.6106990" lon="-58.3599720">
        <ele>14.000000</ele>
        <time>2010-01-01T02:38:46Z</time>
      </trkpt>
      <trkpt lat="-34.6106410" lon="-58.3601528">
        <ele>15.000000</ele>
        <time>2010-01-01T02:38:52Z</time>
      </trkpt>
      <trkpt lat="-34.6105042" lon="-58.3603674">
        <ele>15.000000</ele>
        <time>2010-01-01T02:39:01Z</time>
      </trkpt>
      <trkpt lat="-34.6103055" lon="-58.3605980">
        <ele>13.000000</ele>
        <time>2010-01-01T02:39:12Z</time>
      </trkpt>
      <trkpt lat="-34.6098022" lon="-58.3615797">
        <ele>10.000000</ele>
        <time>2010-01-01T02:39:50Z</time>
      </trkpt>
      <trkpt lat="-34.6094710" lon="-58.3619606">
        <ele>11.000000</ele>
        <time>2010-01-01T02:40:09Z</time>
      </trkpt>
      <trkpt lat="-34.6094048" lon="-58.3624112">
        <ele>10.000000</ele>
        <time>2010-01-01T02:40:24Z</time>
      </trkpt>
      <trkpt lat="-34.6093739" lon="-58.3627921">
        <ele>8.0000000</ele>
        <time>2010-01-01T02:40:36Z</time>
      </trkpt>
      <trkpt lat="-34.6081465" lon="-58.3629959">
        <ele>13.000000</ele>
        <time>2010-01-01T02:41:26Z</time>
      </trkpt>
      <trkpt lat="-34.6065570" lon="-58.3632051">
        <ele>15.000000</ele>
        <time>2010-01-01T02:42:30Z</time>
      </trkpt>
      <trkpt lat="-34.6052589" lon="-58.3633124">
        <ele>17.000000</ele>
        <time>2010-01-01T02:43:22Z</time>
      </trkpt>
      <trkpt lat="-34.6049400" lon="-58.3632880">
        <ele>10.000000</ele>
        <time>2010-01-01T02:43:35Z</time>
      </trkpt>
      <trkpt lat="-34.6047380" lon="-58.3633450">
        <ele>9.0000000</ele>
        <time>2010-01-01T02:43:43Z</time>
      </trkpt>
      <trkpt lat="-34.6045127" lon="-58.3634036">
        <ele>8.0000000</ele>
        <time>2010-01-01T02:43:52Z</time>
      </trkpt>
      <trkpt lat="-34.6039540" lon="-58.3634920">
        <ele>6.0000000</ele>
        <time>2010-01-01T02:44:15Z</time>
      </trkpt>
      <trkpt lat="-34.6029673" lon="-58.3635914">
        <ele>6.0000000</ele>
        <time>2010-01-01T02:44:54Z</time>
      </trkpt>
      <trkpt lat="-34.6021990" lon="-58.3636826">
        <ele>7.0000000</ele>
        <time>2010-01-01T02:45:25Z</time>
      </trkpt>
      <trkpt lat="-34.6005696" lon="-58.3638650">
        <ele>5.0000000</ele>
        <time>2010-01-01T02:46:31Z</time>
      </trkpt>
      <trkpt lat="-34.5996400" lon="-58.3639840">
        <ele>10.000000</ele>
        <time>2010-01-01T02:47:08Z</time>
      </trkpt>
      <trkpt lat="-34.5992630" lon="-58.3640280">
        <ele>8.0000000</ele>
        <time>2010-01-01T02:47:23Z</time>
      </trkpt>
      <trkpt lat="-34.5990240" lon="-58.3640340">
        <ele>8.0000000</ele>
        <time>2010-01-01T02:47:33Z</time>
      </trkpt>
      <trkpt lat="-34.5985700" lon="-58.3641150">
        <ele>8.0000000</ele>
        <time>2010-01-01T02:47:51Z</time>
      </trkpt>
      <trkpt lat="-34.5982072" lon="-58.3642029">
        <ele>8.0000000</ele>
        <time>2010-01-01T02:48:06Z</time>
      </trkpt>
      <trkpt lat="-34.5982735" lon="-58.3653187">
        <ele>6.0000000</ele>
        <time>2010-01-01T02:48:43Z</time>
      </trkpt>
      <trkpt lat="-34.5983140" lon="-58.3655630">
        <ele>6.0000000</ele>
        <time>2010-01-01T02:48:51Z</time>
      </trkpt>
      <trkpt lat="-34.5983132" lon="-58.3659893">
        <ele>11.000000</ele>
        <time>2010-01-01T02:49:05Z</time>
      </trkpt>
      <trkpt lat="-34.5984000" lon="-58.3671140">
        <ele>8.0000000</ele>
        <time>2010-01-01T02:49:43Z</time>
      </trkpt>
      <trkpt lat="-34.5983529" lon="-58.3675879">
        <ele>10.000000</ele>
        <time>2010-01-01T02:49:58Z</time>
      </trkpt>
      <trkpt lat="-34.5982205" lon="-58.3679473">
        <ele>11.000000</ele>
        <time>2010-01-01T02:50:11Z</time>
      </trkpt>
      <trkpt lat="-34.5979158" lon="-58.3681887">
        <ele>10.000000</ele>
        <time>2010-01-01T02:50:26Z</time>
      </trkpt>
      <trkpt lat="-34.5973197" lon="-58.3684515">
        <ele>10.000000</ele>
        <time>2010-01-01T02:50:51Z</time>
      </trkpt>
      <trkpt lat="-34.5952707" lon="-58.3692240">
        <ele>3.0000000</ele>
        <time>2010-01-01T02:52:17Z</time>
      </trkpt>
      <trkpt lat="-34.5940210" lon="-58.3696317">
        <ele>6.0000000</ele>
        <time>2010-01-01T02:53:09Z</time>
      </trkpt>
      <trkpt lat="-34.5930009" lon="-58.3699750">
        <ele>11.000000</ele>
        <time>2010-01-01T02:53:51Z</time>
      </trkpt>
      <trkpt lat="-34.5922010" lon="-58.3702830">
        <ele>10.000000</ele>
        <time>2010-01-01T02:54:25Z</time>
      </trkpt>
      <trkpt lat="-34.5919543" lon="-58.3702915">
        <ele>11.000000</ele>
        <time>2010-01-01T02:54:35Z</time>
      </trkpt>
      <trkpt lat="-34.5913625" lon="-58.3702754">
        <ele>14.000000</ele>
        <time>2010-01-01T02:54:58Z</time>
      </trkpt>
      <trkpt lat="-34.5910976" lon="-58.3703184">
        <ele>13.000000</ele>
        <time>2010-01-01T02:55:09Z</time>
      </trkpt>
      <trkpt lat="-34.5906957" lon="-58.3704578">
        <ele>11.000000</ele>
        <time>2010-01-01T02:55:26Z</time>
      </trkpt>
      <trkpt lat="-34.5905588" lon="-58.3704417">
        <ele>11.000000</ele>
        <time>2010-01-01T02:55:31Z</time>
      </trkpt>
      <trkpt lat="-34.5904042" lon="-58.3703827">
        <ele>11.000000</ele>
        <time>2010-01-01T02:55:38Z</time>
      </trkpt>
      <trkpt lat="-34.5898257" lon="-58.3698999">
        <ele>8.0000000</ele>
        <time>2010-01-01T02:56:06Z</time>
      </trkpt>
      <trkpt lat="-34.5893576" lon="-58.3695137">
        <ele>11.000000</ele>
        <time>2010-01-01T02:56:29Z</time>
      </trkpt>
      <trkpt lat="-34.5884699" lon="-58.3687734">
        <ele>12.000000</ele>
        <time>2010-01-01T02:57:12Z</time>
      </trkpt>
      <trkpt lat="-34.5876044" lon="-58.3680814">
        <ele>14.000000</ele>
        <time>2010-01-01T02:57:53Z</time>
      </trkpt>
      <trkpt lat="-34.5871760" lon="-58.3677327">
        <ele>13.000000</ele>
        <time>2010-01-01T02:58:14Z</time>
      </trkpt>
      <trkpt lat="-34.5866250" lon="-58.3673030">
        <ele>9.0000000</ele>
        <time>2010-01-01T02:58:40Z</time>
      </trkpt>
      <trkpt lat="-34.5858230" lon="-58.3666460">
        <ele>7.0000000</ele>
        <time>2010-01-01T02:59:19Z</time>
      </trkpt>
      <trkpt lat="-34.5855772" lon="-58.3664453">
        <ele>11.000000</ele>
        <time>2010-01-01T02:59:31Z</time>
      </trkpt>
      <trkpt lat="-34.5854190" lon="-58.3664730">
        <ele>12.000000</ele>
        <time>2010-01-01T02:59:37Z</time>
      </trkpt>
      <trkpt lat="-34.5846277" lon="-58.3678293">
        <ele>8.0000000</ele>
        <time>2010-01-01T03:00:32Z</time>
      </trkpt>
      <trkpt lat="-34.5842520" lon="-58.3684790">
        <ele>10.000000</ele>
        <time>2010-01-01T03:00:58Z</time>
      </trkpt>
      <trkpt lat="-34.5839950" lon="-58.3688970">
        <ele>11.000000</ele>
        <time>2010-01-01T03:01:15Z</time>
      </trkpt>
      <trkpt lat="-34.5832660" lon="-58.3701550">
        <ele>13.000000</ele>
        <time>2010-01-01T03:02:06Z</time>
      </trkpt>
      <trkpt lat="-34.5828770" lon="-58.3708940">
        <ele>12.000000</ele>
        <time>2010-01-01T03:02:35Z</time>
      </trkpt>
      <trkpt lat="-34.5820610" lon="-58.3723250">
        <ele>5.0000000</ele>
        <time>2010-01-01T03:03:32Z</time>
      </trkpt>
      <trkpt lat="-34.5818990" lon="-58.3726350">
        <ele>9.0000000</ele>
        <time>2010-01-01T03:03:44Z</time>
      </trkpt>
      <trkpt lat="-34.5814110" lon="-58.3734400">
        <ele>6.0000000</ele>
        <time>2010-01-01T03:04:17Z</time>
      </trkpt>
      <trkpt lat="-34.5811342" lon="-58.3738374">
        <ele>8.0000000</ele>
        <time>2010-01-01T03:04:34Z</time>
      </trkpt>
      <trkpt lat="-34.5802810" lon="-58.3753360">
        <ele>11.000000</ele>
        <time>2010-01-01T03:05:34Z</time>
      </trkpt>
      <trkpt lat="-34.5798843" lon="-58.3760851">
        <ele>5.0000000</ele>
        <time>2010-01-01T03:06:04Z</time>
      </trkpt>
      <trkpt lat="-34.5798666" lon="-58.3762192">
        <ele>5.0000000</ele>
        <time>2010-01-01T03:06:08Z</time>
      </trkpt>
      <trkpt lat="-34.5799480" lon="-58.3782350">
        <ele>9.0000000</ele>
        <time>2010-01-01T03:07:15Z</time>
      </trkpt>
      <trkpt lat="-34.5799900" lon="-58.3788940">
        <ele>8.0000000</ele>
        <time>2010-01-01T03:07:37Z</time>
      </trkpt>
      <trkpt lat="-34.5800256" lon="-58.3796095">
        <ele>8.0000000</ele>
        <time>2010-01-01T03:08:00Z</time>
      </trkpt>
      <trkpt lat="-34.5799726" lon="-58.3799850">
        <ele>8.0000000</ele>
        <time>2010-01-01T03:08:13Z</time>
      </trkpt>
      <trkpt lat="-34.5793764" lon="-58.3810526">
        <ele>7.0000000</ele>
        <time>2010-01-01T03:08:55Z</time>
      </trkpt>
      <trkpt lat="-34.5787140" lon="-58.3823310">
        <ele>9.0000000</ele>
        <time>2010-01-01T03:09:45Z</time>
      </trkpt>
      <trkpt lat="-34.5784940" lon="-58.3827570">
        <ele>8.0000000</ele>
        <time>2010-01-01T03:10:02Z</time>
      </trkpt>
      <trkpt lat="-34.5784220" lon="-58.3828710">
        <ele>8.0000000</ele>
        <time>2010-01-01T03:10:06Z</time>
      </trkpt>
      <trkpt lat="-34.5783090" lon="-58.3831110">
        <ele>8.0000000</ele>
        <time>2010-01-01T03:10:15Z</time>
      </trkpt>
      <trkpt lat="-34.5782160" lon="-58.3835040">
        <ele>6.0000000</ele>
        <time>2010-01-01T03:10:29Z</time>
      </trkpt>
      <trkpt lat="-34.5781400" lon="-58.3840490">
        <ele>5.0000000</ele>
        <time>2010-01-01T03:10:47Z</time>
      </trkpt>
      <trkpt lat="-34.5781090" lon="-58.3844100">
        <ele>5.0000000</ele>
        <time>2010-01-01T03:10:59Z</time>
      </trkpt>
      <trkpt lat="-34.5780646" lon="-58.3850222">
        <ele>4.0000000</ele>
        <time>2010-01-01T03:11:19Z</time>
      </trkpt>
      <trkpt lat="-34.5780513" lon="-58.3851563">
        <ele>5.0000000</ele>
        <time>2010-01-01T03:11:24Z</time>
      </trkpt>
      <trkpt lat="-34.5780072" lon="-58.3852422">
        <ele>5.0000000</ele>
        <time>2010-01-01T03:11:27Z</time>
      </trkpt>
      <trkpt lat="-34.5779542" lon="-58.3853226">
        <ele>6.0000000</ele>
        <time>2010-01-01T03:11:31Z</time>
      </trkpt>
      <trkpt lat="-34.5778570" lon="-58.3853870">
        <ele>6.0000000</ele>
        <time>2010-01-01T03:11:35Z</time>
      </trkpt>
      <trkpt lat="-34.5777377" lon="-58.3854299">
        <ele>6.0000000</ele>
        <time>2010-01-01T03:11:40Z</time>
      </trkpt>
      <trkpt lat="-34.5774065" lon="-58.3854353">
        <ele>4.0000000</ele>
        <time>2010-01-01T03:11:53Z</time>
      </trkpt>
      <trkpt lat="-34.5768500" lon="-58.3854138">
        <ele>2.0000000</ele>
        <time>2010-01-01T03:12:15Z</time>
      </trkpt>
      <trkpt lat="-34.5766070" lon="-58.3854836">
        <ele>1.0000000</ele>
        <time>2010-01-01T03:12:25Z</time>
      </trkpt>
      <trkpt lat="-34.5765260" lon="-58.3855580">
        <ele>0.0000000</ele>
        <time>2010-01-01T03:12:30Z</time>
      </trkpt>
      <trkpt lat="-34.5763067" lon="-58.3857893">
        <ele>1.0000000</ele>
        <time>2010-01-01T03:12:41Z</time>
      </trkpt>
      <trkpt lat="-34.5753310" lon="-58.3875300">
        <ele>8.0000000</ele>
        <time>2010-01-01T03:13:51Z</time>
      </trkpt>
      <trkpt lat="-34.5752260" lon="-58.3877140">
        <ele>8.0000000</ele>
        <time>2010-01-01T03:13:58Z</time>
      </trkpt>
      <trkpt lat="-34.5751950" lon="-58.3877960">
        <ele>8.0000000</ele>
        <time>2010-01-01T03:14:01Z</time>
      </trkpt>
      <trkpt lat="-34.5750770" lon="-58.3879800">
        <ele>8.0000000</ele>
        <time>2010-01-01T03:14:09Z</time>
      </trkpt>
      <trkpt lat="-34.5749790" lon="-58.3881660">
        <ele>8.0000000</ele>
        <time>2010-01-01T03:14:16Z</time>
      </trkpt>
      <trkpt lat="-34.5748330" lon="-58.3883750">
        <ele>6.0000000</ele>
        <time>2010-01-01T03:14:25Z</time>
      </trkpt>
      <trkpt lat="-34.5744470" lon="-58.3890290">
        <ele>7.0000000</ele>
        <time>2010-01-01T03:14:51Z</time>
      </trkpt>
      <trkpt lat="-34.5743340" lon="-58.3892590">
        <ele>6.0000000</ele>
        <time>2010-01-01T03:15:00Z</time>
      </trkpt>
      <trkpt lat="-34.5742040" lon="-58.3894760">
        <ele>5.0000000</ele>
        <time>2010-01-01T03:15:09Z</time>
      </trkpt>
      <trkpt lat="-34.5737360" lon="-58.3903040">
        <ele>6.0000000</ele>
        <time>2010-01-01T03:15:42Z</time>
      </trkpt>
      <trkpt lat="-34.5724540" lon="-58.3925570">
        <ele>4.0000000</ele>
        <time>2010-01-01T03:17:12Z</time>
      </trkpt>
      <trkpt lat="-34.5723460" lon="-58.3927510">
        <ele>4.0000000</ele>
        <time>2010-01-01T03:17:20Z</time>
      </trkpt>
      <trkpt lat="-34.5723000" lon="-58.3928790">
        <ele>5.0000000</ele>
        <time>2010-01-01T03:17:25Z</time>
      </trkpt>
      <trkpt lat="-34.5722460" lon="-58.3931470">
        <ele>7.0000000</ele>
        <time>2010-01-01T03:17:34Z</time>
      </trkpt>
      <trkpt lat="-34.5722710" lon="-58.3944700">
        <ele>8.0000000</ele>
        <time>2010-01-01T03:18:18Z</time>
      </trkpt>
      <trkpt lat="-34.5722740" lon="-58.3947400">
        <ele>5.0000000</ele>
        <time>2010-01-01T03:18:26Z</time>
      </trkpt>
      <trkpt lat="-34.5722510" lon="-58.3948700">
        <ele>5.0000000</ele>
        <time>2010-01-01T03:18:31Z</time>
      </trkpt>
      <trkpt lat="-34.5721800" lon="-58.3950540">
        <ele>5.0000000</ele>
        <time>2010-01-01T03:18:38Z</time>
      </trkpt>
      <trkpt lat="-34.5719710" lon="-58.3955290">
        <ele>6.0000000</ele>
        <time>2010-01-01T03:18:55Z</time>
      </trkpt>
      <trkpt lat="-34.5717700" lon="-58.3959340">
        <ele>7.0000000</ele>
        <time>2010-01-01T03:19:11Z</time>
      </trkpt>
      <trkpt lat="-34.5715320" lon="-58.3963390">
        <ele>7.0000000</ele>
        <time>2010-01-01T03:19:27Z</time>
      </trkpt>
      <trkpt lat="-34.5706730" lon="-58.3978520">
        <ele>10.000000</ele>
        <time>2010-01-01T03:20:28Z</time>
      </trkpt>
      <trkpt lat="-34.5704320" lon="-58.3982680">
        <ele>14.000000</ele>
        <time>2010-01-01T03:20:45Z</time>
      </trkpt>
      <trkpt lat="-34.5701990" lon="-58.3986210">
        <ele>12.000000</ele>
        <time>2010-01-01T03:21:00Z</time>
      </trkpt>
      <trkpt lat="-34.5700540" lon="-58.3988770">
        <ele>10.000000</ele>
        <time>2010-01-01T03:21:10Z</time>
      </trkpt>
      <trkpt lat="-34.5696070" lon="-58.3995850">
        <ele>9.0000000</ele>
        <time>2010-01-01T03:21:39Z</time>
      </trkpt>
      <trkpt lat="-34.5694360" lon="-58.3998870">
        <ele>7.0000000</ele>
        <time>2010-01-01T03:21:51Z</time>
      </trkpt>
      <trkpt lat="-34.5692240" lon="-58.4001950">
        <ele>4.0000000</ele>
        <time>2010-01-01T03:22:04Z</time>
      </trkpt>
      <trkpt lat="-34.5691380" lon="-58.4002780">
        <ele>3.0000000</ele>
        <time>2010-01-01T03:22:09Z</time>
      </trkpt>
      <trkpt lat="-34.5690490" lon="-58.4003350">
        <ele>2.0000000</ele>
        <time>2010-01-01T03:22:13Z</time>
      </trkpt>
      <trkpt lat="-34.5689310" lon="-58.4003420">
        <ele>1.0000000</ele>
        <time>2010-01-01T03:22:18Z</time>
      </trkpt>
      <trkpt lat="-34.5687690" lon="-58.4003220">
        <ele>0.0000000</ele>
        <time>2010-01-01T03:22:24Z</time>
      </trkpt>
      <trkpt lat="-34.5686180" lon="-58.4003380">
        <ele>1.0000000</ele>
        <time>2010-01-01T03:22:30Z</time>
      </trkpt>
      <trkpt lat="-34.5685140" lon="-58.4003770">
        <ele>2.0000000</ele>
        <time>2010-01-01T03:22:35Z</time>
      </trkpt>
      <trkpt lat="-34.5679550" lon="-58.4008000">
        <ele>2.0000000</ele>
        <time>2010-01-01T03:23:01Z</time>
      </trkpt>
      <trkpt lat="-34.5678410" lon="-58.4008470">
        <ele>4.0000000</ele>
        <time>2010-01-01T03:23:06Z</time>
      </trkpt>
      <trkpt lat="-34.5676880" lon="-58.4008840">
        <ele>5.0000000</ele>
        <time>2010-01-01T03:23:12Z</time>
      </trkpt>
      <trkpt lat="-34.5672020" lon="-58.4008990">
        <ele>8.0000000</ele>
        <time>2010-01-01T03:23:31Z</time>
      </trkpt>
      <trkpt lat="-34.5667660" lon="-58.4009420">
        <ele>9.0000000</ele>
        <time>2010-01-01T03:23:49Z</time>
      </trkpt>
      <trkpt lat="-34.5663040" lon="-58.4010370">
        <ele>7.0000000</ele>
        <time>2010-01-01T03:24:08Z</time>
      </trkpt>
      <trkpt lat="-34.5660060" lon="-58.4011630">
        <ele>8.0000000</ele>
        <time>2010-01-01T03:24:20Z</time>
      </trkpt>
      <trkpt lat="-34.5657070" lon="-58.4013350">
        <ele>10.000000</ele>
        <time>2010-01-01T03:24:34Z</time>
      </trkpt>
      <trkpt lat="-34.5654220" lon="-58.4015450">
        <ele>8.0000000</ele>
        <time>2010-01-01T03:24:47Z</time>
      </trkpt>
      <trkpt lat="-34.5650730" lon="-58.4018840">
        <ele>2.0000000</ele>
        <time>2010-01-01T03:25:05Z</time>
      </trkpt>
      <trkpt lat="-34.5648430" lon="-58.4021700">
        <ele>2.0000000</ele>
        <time>2010-01-01T03:25:18Z</time>
      </trkpt>
      <trkpt lat="-34.5645860" lon="-58.4025770">
        <ele>4.0000000</ele>
        <time>2010-01-01T03:25:35Z</time>
      </trkpt>
      <trkpt lat="-34.5637760" lon="-58.4040600">
        <ele>6.0000000</ele>
        <time>2010-01-01T03:26:34Z</time>
      </trkpt>
      <trkpt lat="-34.5629800" lon="-58.4049180">
        <ele>1.0000000</ele>
        <time>2010-01-01T03:27:16Z</time>
      </trkpt>
      <trkpt lat="-34.5627480" lon="-58.4051480">
        <ele>1.0000000</ele>
        <time>2010-01-01T03:27:28Z</time>
      </trkpt>
      <trkpt lat="-34.5623360" lon="-58.4056120">
        <ele>1.0000000</ele>
        <time>2010-01-01T03:27:51Z</time>
      </trkpt>
      <trkpt lat="-34.5621140" lon="-58.4058320">
        <ele>1.0000000</ele>
        <time>2010-01-01T03:28:02Z</time>
      </trkpt>
      <trkpt lat="-34.5616310" lon="-58.4064370">
        <ele>1.0000000</ele>
        <time>2010-01-01T03:28:30Z</time>
      </trkpt>
      <trkpt lat="-34.5612440" lon="-58.4068770">
        <ele>1.0000000</ele>
        <time>2010-01-01T03:28:51Z</time>
      </trkpt>
      <trkpt lat="-34.5610760" lon="-58.4070890">
        <ele>1.0000000</ele>
        <time>2010-01-01T03:29:01Z</time>
      </trkpt>
      <trkpt lat="-34.5608520" lon="-58.4073040">
        <ele>1.0000000</ele>
        <time>2010-01-01T03:29:12Z</time>
      </trkpt>
      <trkpt lat="-34.5603710" lon="-58.4078220">
        <ele>2.0000000</ele>
        <time>2010-01-01T03:29:38Z</time>
      </trkpt>
      <trkpt lat="-34.5600440" lon="-58.4082270">
        <ele>12.000000</ele>
        <time>2010-01-01T03:29:57Z</time>
      </trkpt>
      <trkpt lat="-34.5593920" lon="-58.4090940">
        <ele>7.0000000</ele>
        <time>2010-01-01T03:30:35Z</time>
      </trkpt>
      <trkpt lat="-34.5590590" lon="-58.4094110">
        <ele>6.0000000</ele>
        <time>2010-01-01T03:30:52Z</time>
      </trkpt>
      <trkpt lat="-34.5587690" lon="-58.4098070">
        <ele>7.0000000</ele>
        <time>2010-01-01T03:31:10Z</time>
      </trkpt>
      <trkpt lat="-34.5578375" lon="-58.4110397">
        <ele>8.0000000</ele>
        <time>2010-01-01T03:32:05Z</time>
      </trkpt>
      <trkpt lat="-34.5570379" lon="-58.4121233">
        <ele>6.0000000</ele>
        <time>2010-01-01T03:32:53Z</time>
      </trkpt>
      <trkpt lat="-34.5564460" lon="-58.4131560">
        <ele>13.000000</ele>
        <time>2010-01-01T03:33:34Z</time>
      </trkpt>
      <trkpt lat="-34.5563620" lon="-58.4133040">
        <ele>12.000000</ele>
        <time>2010-01-01T03:33:40Z</time>
      </trkpt>
      <trkpt lat="-34.5563070" lon="-58.4133670">
        <ele>10.000000</ele>
        <time>2010-01-01T03:33:43Z</time>
      </trkpt>
      <trkpt lat="-34.5560640" lon="-58.4137850">
        <ele>6.0000000</ele>
        <time>2010-01-01T03:34:00Z</time>
      </trkpt>
      <trkpt lat="-34.5553580" lon="-58.4152620">
        <ele>7.0000000</ele>
        <time>2010-01-01T03:34:57Z</time>
      </trkpt>
      <trkpt lat="-34.5551790" lon="-58.4156340">
        <ele>5.0000000</ele>
        <time>2010-01-01T03:35:11Z</time>
      </trkpt>
      <trkpt lat="-34.5550160" lon="-58.4160900">
        <ele>3.0000000</ele>
        <time>2010-01-01T03:35:27Z</time>
      </trkpt>
      <trkpt lat="-34.5547590" lon="-58.4168930">
        <ele>9.0000000</ele>
        <time>2010-01-01T03:35:56Z</time>
      </trkpt>
      <trkpt lat="-34.5541220" lon="-58.4195150">
        <ele>9.0000000</ele>
        <time>2010-01-01T03:37:26Z</time>
      </trkpt>
      <trkpt lat="-34.5537330" lon="-58.4210250">
        <ele>8.0000000</ele>
        <time>2010-01-01T03:38:18Z</time>
      </trkpt>
      <trkpt lat="-34.5535330" lon="-58.4218140">
        <ele>9.0000000</ele>
        <time>2010-01-01T03:38:45Z</time>
      </trkpt>
      <trkpt lat="-34.5531290" lon="-58.4234780">
        <ele>9.0000000</ele>
        <time>2010-01-01T03:39:42Z</time>
      </trkpt>
      <trkpt lat="-34.5525050" lon="-58.4254914">
        <ele>10.000000</ele>
        <time>2010-01-01T03:40:53Z</time>
      </trkpt>
      <trkpt lat="-34.5518910" lon="-58.4270410">
        <ele>9.0000000</ele>
        <time>2010-01-01T03:41:50Z</time>
      </trkpt>
      <trkpt lat="-34.5513150" lon="-58.4282470">
        <ele>9.0000000</ele>
        <time>2010-01-01T03:42:36Z</time>
      </trkpt>
      <trkpt lat="-34.5509040" lon="-58.4290070">
        <ele>9.0000000</ele>
        <time>2010-01-01T03:43:06Z</time>
      </trkpt>
      <trkpt lat="-34.5504160" lon="-58.4297420">
        <ele>8.0000000</ele>
        <time>2010-01-01T03:43:37Z</time>
      </trkpt>
      <trkpt lat="-34.5499920" lon="-58.4302300">
        <ele>9.0000000</ele>
        <time>2010-01-01T03:44:00Z</time>
      </trkpt>
      <trkpt lat="-34.5497160" lon="-58.4304640">
        <ele>9.0000000</ele>
        <time>2010-01-01T03:44:14Z</time>
      </trkpt>
      <trkpt lat="-34.5490050" lon="-58.4308580">
        <ele>10.000000</ele>
        <time>2010-01-01T03:44:45Z</time>
      </trkpt>
      <trkpt lat="-34.5487590" lon="-58.4309440">
        <ele>8.0000000</ele>
        <time>2010-01-01T03:44:55Z</time>
      </trkpt>
      <trkpt lat="-34.5472649" lon="-58.4309738">
        <ele>7.0000000</ele>
        <time>2010-01-01T03:45:55Z</time>
      </trkpt>
      <trkpt lat="-34.5469600" lon="-58.4309760">
        <ele>7.0000000</ele>
        <time>2010-01-01T03:46:07Z</time>
      </trkpt>
      <trkpt lat="-34.5467500" lon="-58.4309810">
        <ele>8.0000000</ele>
        <time>2010-01-01T03:46:16Z</time>
      </trkpt>
      <trkpt lat="-34.5457730" lon="-58.4311460">
        <ele>15.000000</ele>
        <time>2010-01-01T03:46:55Z</time>
      </trkpt>
      <trkpt lat="-34.5456050" lon="-58.4311910">
        <ele>17.000000</ele>
        <time>2010-01-01T03:47:02Z</time>
      </trkpt>
      <trkpt lat="-34.5455120" lon="-58.4312340">
        <ele>16.000000</ele>
        <time>2010-01-01T03:47:06Z</time>
      </trkpt>
      <trkpt lat="-34.5452260" lon="-58.4313950">
        <ele>9.0000000</ele>
        <time>2010-01-01T03:47:19Z</time>
      </trkpt>
      <trkpt lat="-34.5447620" lon="-58.4317390">
        <ele>5.0000000</ele>
        <time>2010-01-01T03:47:40Z</time>
      </trkpt>
      <trkpt lat="-34.5446750" lon="-58.4318090">
        <ele>5.0000000</ele>
        <time>2010-01-01T03:47:45Z</time>
      </trkpt>
      <trkpt lat="-34.5442660" lon="-58.4322150">
        <ele>6.0000000</ele>
        <time>2010-01-01T03:48:06Z</time>
      </trkpt>
      <trkpt lat="-34.5440140" lon="-58.4325890">
        <ele>8.0000000</ele>
        <time>2010-01-01T03:48:22Z</time>
      </trkpt>
      <trkpt lat="-34.5436430" lon="-58.4332190">
        <ele>8.0000000</ele>
        <time>2010-01-01T03:48:47Z</time>
      </trkpt>
      <trkpt lat="-34.5431720" lon="-58.4342620">
        <ele>8.0000000</ele>
        <time>2010-01-01T03:49:26Z</time>
      </trkpt>
      <trkpt lat="-34.5430470" lon="-58.4346190">
        <ele>9.0000000</ele>
        <time>2010-01-01T03:49:39Z</time>
      </trkpt>
      <trkpt lat="-34.5429530" lon="-58.4349590">
        <ele>8.0000000</ele>
        <time>2010-01-01T03:49:51Z</time>
      </trkpt>
      <trkpt lat="-34.5427450" lon="-58.4358630">
        <ele>6.0000000</ele>
        <time>2010-01-01T03:50:22Z</time>
      </trkpt>
      <trkpt lat="-34.5426840" lon="-58.4362170">
        <ele>4.0000000</ele>
        <time>2010-01-01T03:50:34Z</time>
      </trkpt>
      <trkpt lat="-34.5426790" lon="-58.4363500">
        <ele>3.0000000</ele>
        <time>2010-01-01T03:50:38Z</time>
      </trkpt>
      <trkpt lat="-34.5427182" lon="-58.4367781">
        <ele>4.0000000</ele>
        <time>2010-01-01T03:50:53Z</time>
      </trkpt>
      <trkpt lat="-34.5428640" lon="-58.4371429">
        <ele>6.0000000</ele>
        <time>2010-01-01T03:51:06Z</time>
      </trkpt>
      <trkpt lat="-34.5430716" lon="-58.4374487">
        <ele>9.0000000</ele>
        <time>2010-01-01T03:51:19Z</time>
      </trkpt>
      <trkpt lat="-34.5433990" lon="-58.4377640">
        <ele>12.000000</ele>
        <time>2010-01-01T03:51:36Z</time>
      </trkpt>
      <trkpt lat="-34.5441321" lon="-58.4382748">
        <ele>5.0000000</ele>
        <time>2010-01-01T03:52:10Z</time>
      </trkpt>
      <trkpt lat="-34.5443410" lon="-58.4383670">
        <ele>8.0000000</ele>
        <time>2010-01-01T03:52:18Z</time>
      </trkpt>
      <trkpt lat="-34.5444480" lon="-58.4384340">
        <ele>9.0000000</ele>
        <time>2010-01-01T03:52:23Z</time>
      </trkpt>
      <trkpt lat="-34.5446390" lon="-58.4385270">
        <ele>9.0000000</ele>
        <time>2010-01-01T03:52:32Z</time>
      </trkpt>
      <trkpt lat="-34.5448930" lon="-58.4386140">
        <ele>8.0000000</ele>
        <time>2010-01-01T03:52:42Z</time>
      </trkpt>
      <trkpt lat="-34.5450300" lon="-58.4386890">
        <ele>8.0000000</ele>
        <time>2010-01-01T03:52:48Z</time>
      </trkpt>
      <trkpt lat="-34.5452480" lon="-58.4388660">
        <ele>7.0000000</ele>
        <time>2010-01-01T03:52:59Z</time>
      </trkpt>
      <trkpt lat="-34.5454120" lon="-58.4390550">
        <ele>8.0000000</ele>
        <time>2010-01-01T03:53:08Z</time>
      </trkpt>
      <trkpt lat="-34.5454356" lon="-58.4402114">
        <ele>10.000000</ele>
        <time>2010-01-01T03:53:46Z</time>
      </trkpt>
      <trkpt lat="-34.5454430" lon="-58.4409270">
        <ele>12.000000</ele>
        <time>2010-01-01T03:54:09Z</time>
      </trkpt>
      <trkpt lat="-34.5453990" lon="-58.4410700">
        <ele>12.000000</ele>
        <time>2010-01-01T03:54:14Z</time>
      </trkpt>
      <trkpt lat="-34.5438270" lon="-58.4410680">
        <ele>5.0000000</ele>
        <time>2010-01-01T03:55:17Z</time>
      </trkpt>
      <trkpt lat="-34.5436870" lon="-58.4410890">
        <ele>4.0000000</ele>
        <time>2010-01-01T03:55:23Z</time>
      </trkpt>
      <trkpt lat="-34.5435910" lon="-58.4411300">
        <ele>4.0000000</ele>
        <time>2010-01-01T03:55:27Z</time>
      </trkpt>
      <trkpt lat="-34.5435040" lon="-58.4411870">
        <ele>5.0000000</ele>
        <time>2010-01-01T03:55:31Z</time>
      </trkpt>
      <trkpt lat="-34.5434530" lon="-58.4412420">
        <ele>6.0000000</ele>
        <time>2010-01-01T03:55:34Z</time>
      </trkpt>
      <trkpt lat="-34.5429960" lon="-58.4424370">
        <ele>11.000000</ele>
        <time>2010-01-01T03:56:17Z</time>
      </trkpt>
      <trkpt lat="-34.5429630" lon="-58.4425190">
        <ele>11.000000</ele>
        <time>2010-01-01T03:56:20Z</time>
      </trkpt>
      <trkpt lat="-34.5426690" lon="-58.4429590">
        <ele>7.0000000</ele>
        <time>2010-01-01T03:56:39Z</time>
      </trkpt>
      <trkpt lat="-34.5421210" lon="-58.4439450">
        <ele>8.0000000</ele>
        <time>2010-01-01T03:57:18Z</time>
      </trkpt>
      <trkpt lat="-34.5420120" lon="-58.4441680">
        <ele>11.000000</ele>
        <time>2010-01-01T03:57:27Z</time>
      </trkpt>
      <trkpt lat="-34.5417210" lon="-58.4447100">
        <ele>13.000000</ele>
        <time>2010-01-01T03:57:48Z</time>
      </trkpt>
      <trkpt lat="-34.5414320" lon="-58.4451640">
        <ele>11.000000</ele>
        <time>2010-01-01T03:58:07Z</time>
      </trkpt>
      <trkpt lat="-34.5413080" lon="-58.4454000">
        <ele>9.0000000</ele>
        <time>2010-01-01T03:58:16Z</time>
      </trkpt>
      <trkpt lat="-34.5412250" lon="-58.4455260">
        <ele>8.0000000</ele>
        <time>2010-01-01T03:58:21Z</time>
      </trkpt>
      <trkpt lat="-34.5410740" lon="-58.4458440">
        <ele>3.0000000</ele>
        <time>2010-01-01T03:58:34Z</time>
      </trkpt>
      <trkpt lat="-34.5409400" lon="-58.4460610">
        <ele>3.0000000</ele>
        <time>2010-01-01T03:58:43Z</time>
      </trkpt>
      <trkpt lat="-34.5407440" lon="-58.4464730">
        <ele>6.0000000</ele>
        <time>2010-01-01T03:58:58Z</time>
      </trkpt>
      <trkpt lat="-34.5405450" lon="-58.4467830">
        <ele>9.0000000</ele>
        <time>2010-01-01T03:59:11Z</time>
      </trkpt>
      <trkpt lat="-34.5403800" lon="-58.4470790">
        <ele>10.000000</ele>
        <time>2010-01-01T03:59:23Z</time>
      </trkpt>
      <trkpt lat="-34.5402850" lon="-58.4473030">
        <ele>10.000000</ele>
        <time>2010-01-01T03:59:31Z</time>
      </trkpt>
      <trkpt lat="-34.5399211" lon="-58.4479737">
        <ele>9.0000000</ele>
        <time>2010-01-01T03:59:58Z</time>
      </trkpt>
      <trkpt lat="-34.5392810" lon="-58.4487250">
        <ele>9.0000000</ele>
        <time>2010-01-01T04:00:33Z</time>
      </trkpt>
      <trkpt lat="-34.5390730" lon="-58.4490180">
        <ele>10.000000</ele>
        <time>2010-01-01T04:00:46Z</time>
      </trkpt>
      <trkpt lat="-34.5390320" lon="-58.4491300">
        <ele>9.0000000</ele>
        <time>2010-01-01T04:00:50Z</time>
      </trkpt>
      <trkpt lat="-34.5390450" lon="-58.4492640">
        <ele>10.000000</ele>
        <time>2010-01-01T04:00:55Z</time>
      </trkpt>
      <trkpt lat="-34.5390700" lon="-58.4493460">
        <ele>10.000000</ele>
        <time>2010-01-01T04:00:58Z</time>
      </trkpt>
      <trkpt lat="-34.5395900" lon="-58.4497680">
        <ele>9.0000000</ele>
        <time>2010-01-01T04:01:23Z</time>
      </trkpt>
      <trkpt lat="-34.5401140" lon="-58.4501840">
        <ele>11.000000</ele>
        <time>2010-01-01T04:01:48Z</time>
      </trkpt>
      <trkpt lat="-34.5403840" lon="-58.4503480">
        <ele>12.000000</ele>
        <time>2010-01-01T04:02:00Z</time>
      </trkpt>
      <trkpt lat="-34.5404680" lon="-58.4503820">
        <ele>12.000000</ele>
        <time>2010-01-01T04:02:03Z</time>
      </trkpt>
      <trkpt lat="-34.5405580" lon="-58.4503880">
        <ele>12.000000</ele>
        <time>2010-01-01T04:02:07Z</time>
      </trkpt>
      <trkpt lat="-34.5406360" lon="-58.4503570">
        <ele>11.000000</ele>
        <time>2010-01-01T04:02:10Z</time>
      </trkpt>
      <trkpt lat="-34.5407050" lon="-58.4502740">
        <ele>11.000000</ele>
        <time>2010-01-01T04:02:14Z</time>
      </trkpt>
      <trkpt lat="-34.5407330" lon="-58.4501600">
        <ele>10.000000</ele>
        <time>2010-01-01T04:02:18Z</time>
      </trkpt>
      <trkpt lat="-34.5407200" lon="-58.4500400">
        <ele>9.0000000</ele>
        <time>2010-01-01T04:02:22Z</time>
      </trkpt>
      <trkpt lat="-34.5405470" lon="-58.4497220">
        <ele>10.000000</ele>
        <time>2010-01-01T04:02:34Z</time>
      </trkpt>
      <trkpt lat="-34.5405100" lon="-58.4496020">
        <ele>8.0000000</ele>
        <time>2010-01-01T04:02:39Z</time>
      </trkpt>
      <trkpt lat="-34.5404950" lon="-58.4494560">
        <ele>7.0000000</ele>
        <time>2010-01-01T04:02:44Z</time>
      </trkpt>
      <trkpt lat="-34.5405030" lon="-58.4493280">
        <ele>7.0000000</ele>
        <time>2010-01-01T04:02:48Z</time>
      </trkpt>
      <trkpt lat="-34.5405300" lon="-58.4492070">
        <ele>7.0000000</ele>
        <time>2010-01-01T04:02:52Z</time>
      </trkpt>
      <trkpt lat="-34.5405800" lon="-58.4490130">
        <ele>6.0000000</ele>
        <time>2010-01-01T04:02:59Z</time>
      </trkpt>
      <trkpt lat="-34.5406160" lon="-58.4489360">
        <ele>6.0000000</ele>
        <time>2010-01-01T04:03:02Z</time>
      </trkpt>
      <trkpt lat="-34.5408269" lon="-58.4486657">
        <ele>7.0000000</ele>
        <time>2010-01-01T04:03:14Z</time>
      </trkpt>
      <trkpt lat="-34.5411539" lon="-58.4485101">
        <ele>5.0000000</ele>
        <time>2010-01-01T04:03:28Z</time>
      </trkpt>
      <trkpt lat="-34.5413837" lon="-58.4485155">
        <ele>5.0000000</ele>
        <time>2010-01-01T04:03:37Z</time>
      </trkpt>
      <trkpt lat="-34.5417549" lon="-58.4486711">
        <ele>6.0000000</ele>
        <time>2010-01-01T04:03:53Z</time>
      </trkpt>
      <trkpt lat="-34.5430080" lon="-58.4495480">
        <ele>7.0000000</ele>
        <time>2010-01-01T04:04:51Z</time>
      </trkpt>
      <trkpt lat="-34.5433930" lon="-58.4498410">
        <ele>8.0000000</ele>
        <time>2010-01-01T04:05:09Z</time>
      </trkpt>
      <trkpt lat="-34.5435410" lon="-58.4499330">
        <ele>9.0000000</ele>
        <time>2010-01-01T04:05:16Z</time>
      </trkpt>
      <trkpt lat="-34.5438200" lon="-58.4501610">
        <ele>9.0000000</ele>
        <time>2010-01-01T04:05:29Z</time>
      </trkpt>
      <trkpt lat="-34.5441510" lon="-58.4504010">
        <ele>12.000000</ele>
        <time>2010-01-01T04:05:44Z</time>
      </trkpt>
      <trkpt lat="-34.5443010" lon="-58.4505380">
        <ele>15.000000</ele>
        <time>2010-01-01T04:05:52Z</time>
      </trkpt>
      <trkpt lat="-34.5452530" lon="-58.4511160">
        <ele>18.000000</ele>
        <time>2010-01-01T04:06:35Z</time>
      </trkpt>
      <trkpt lat="-34.5454190" lon="-58.4512040">
        <ele>15.000000</ele>
        <time>2010-01-01T04:06:42Z</time>
      </trkpt>
      <trkpt lat="-34.5456130" lon="-58.4513430">
        <ele>10.000000</ele>
        <time>2010-01-01T04:06:51Z</time>
      </trkpt>
      <trkpt lat="-34.5459580" lon="-58.4516730">
        <ele>6.0000000</ele>
        <time>2010-01-01T04:07:08Z</time>
      </trkpt>
      <trkpt lat="-34.5460520" lon="-58.4517450">
        <ele>6.0000000</ele>
        <time>2010-01-01T04:07:13Z</time>
      </trkpt>
      <trkpt lat="-34.5462340" lon="-58.4518810">
        <ele>7.0000000</ele>
        <time>2010-01-01T04:07:21Z</time>
      </trkpt>
      <trkpt lat="-34.5464190" lon="-58.4512820">
        <ele>5.0000000</ele>
        <time>2010-01-01T04:07:43Z</time>
      </trkpt>
      <trkpt lat="-34.5465940" lon="-58.4500090">
        <ele>10.000000</ele>
        <time>2010-01-01T04:08:25Z</time>
      </trkpt>
      <trkpt lat="-34.5468340" lon="-58.4483890">
        <ele>8.0000000</ele>
        <time>2010-01-01T04:09:19Z</time>
      </trkpt>
      <trkpt lat="-34.5468800" lon="-58.4480440">
        <ele>9.0000000</ele>
        <time>2010-01-01T04:09:31Z</time>
      </trkpt>
      <trkpt lat="-34.5469600" lon="-58.4476190">
        <ele>10.000000</ele>
        <time>2010-01-01T04:09:45Z</time>
      </trkpt>
      <trkpt lat="-34.5470110" lon="-58.4471800">
        <ele>13.000000</ele>
        <time>2010-01-01T04:10:00Z</time>
      </trkpt>
      <trkpt lat="-34.5474637" lon="-58.4442400">
        <ele>11.000000</ele>
        <time>2010-01-01T04:11:38Z</time>
      </trkpt>
      <trkpt lat="-34.5476890" lon="-58.4426736">
        <ele>12.000000</ele>
        <time>2010-01-01T04:12:31Z</time>
      </trkpt>
      <trkpt lat="-34.5479130" lon="-58.4415130">
        <ele>12.000000</ele>
        <time>2010-01-01T04:13:10Z</time>
      </trkpt>
      <trkpt lat="-34.5480420" lon="-58.4410170">
        <ele>14.000000</ele>
        <time>2010-01-01T04:13:27Z</time>
      </trkpt>
      <trkpt lat="-34.5481240" lon="-58.4407730">
        <ele>15.000000</ele>
        <time>2010-01-01T04:13:36Z</time>
      </trkpt>
      <trkpt lat="-34.5482270" lon="-58.4404980">
        <ele>16.000000</ele>
        <time>2010-01-01T04:13:46Z</time>
      </trkpt>
      <trkpt lat="-34.5485329" lon="-58.4398519">
        <ele>11.000000</ele>
        <time>2010-01-01T04:14:11Z</time>
      </trkpt>
    </trkseg>
  </trk>
</gpx>

